<?xml version="1.0" encoding="UTF-8"?>
<kml xmlns="http://www.opengis.net/kml/2.2">
<Document>
<Style id="LineStyle1">
  <LineStyle>
  <color>ffFF0000</color>
  <width>5</width>
  </LineStyle>
</Style>
<Style id="LineStyle2">
  <LineStyle>
  <color>ffff00ff</color>
  <width>5</width>
  </LineStyle>
</Style>
<Style id="LineStyle3">
  <LineStyle>
  <color>ff0000ff</color>
  <width>5</width>
  </LineStyle>
</Style>
<Style id="LineStyle4">
  <LineStyle>
  <color>ff#57C0FF</color>
  <width>5</width>
  </LineStyle>
</Style>
<Placemark>
<name>浸水範囲</name>
<styleUrl>#LineStyle1</styleUrl>
<LineString>
<coordinates>139.97040603704093,36.13894173458879 139.97040770794123,36.13895889894539</coordinates>
</LineString>
</Placemark>
<Placemark>
<name>浸水範囲</name>
<styleUrl>#LineStyle1</styleUrl>
<LineString>
<coordinates>139.9670542241367,36.10022628018557 139.96705784170385,36.100231395343634 139.96784963745654,36.10016521291041 139.96858682641974,36.100518184517554 139.96896907304784,36.10082703255649 139.9695697450373,36.101157940651945 139.97000659845492,36.10140060550928 139.9706891806286,36.10168738968966 139.97118063993742,36.102040353732676 139.97169940264092,36.10221683588536 139.97224546873923,36.1023933169158 139.97284614162697,36.10252567724702 139.97325569075153,36.10256979754982 139.9735560271954,36.10193005291175 139.97374715006032,36.101422665253864 139.97363793737966,36.10089321443223 139.97369254416915,36.100231395343634 139.9738017568498,36.099525448692766 139.97396557721828,36.09873125158274 139.97421130687266,36.0979811693249 139.97451164241826,36.09747375616624 139.9739109704288,36.09725314082212 139.9736652407744,36.09709870993046 139.97382906024455,36.096613352894146 139.9739928797147,36.09623830255187 139.9735014204059,36.09621624062588 139.97358333059017,36.095620568460774 139.97371984756387,36.095201388964696 139.97426591276385,36.09493664267675 139.9749757992306,36.09478220723268 139.97565838140432,36.09469395785645 139.97617714410785,36.094517459532575 139.97642287376223,36.09356877397821 139.97655939073596,36.09310545794556 139.97726927630438,36.09359083664743 139.97786994919215,36.0943409608123 139.9783341051062,36.09482633188364 139.98139207453792,36.095510257901815 139.9810098288081,36.09650304445465 139.9803272457361,36.09776055540537 139.98092791862388,36.09820178262503 139.9818016245608,36.099062168504695 139.98240229655025,36.09985636226997 139.98275723978364,36.100628487320584 139.98294836264853,36.101510907073504 139.98387667537494,36.101510907073504 139.98414970842407,36.101709450079525 139.98472307701877,36.10168738968966 139.98453195415388,36.10327571684738 139.98445004396964,36.1041360471658 139.98548756937672,36.10422428521208 139.98548756937672,36.10528313911742 139.98791756342422,36.10541549457992 139.98767183376984,36.10579050184329 139.986716218547,36.10618756572311 139.98551487277146,36.10684933463803 139.9852418397223,36.10733462771845 139.98513262704162,36.10834932339322 139.98499611006793,36.10938606346862 139.98496880667318,36.10954047020887 139.98455925754863,36.10954047020887 139.98409510163458,36.109474295617765 139.98387667537494,36.10945223740834 139.9834944287468,36.11194476716438 139.98343982195732,36.112805002538295 139.98333060927666,36.11415048018389 139.9831667889082,36.114415161728346 139.9813101643537,36.11434899124445 139.98010881947644,36.11423870770639 139.97918050764838,36.11423870770639 139.97860713815535,36.114084309476965 139.97762421953777,36.11359905809963 139.9770781534395,36.114128423287774 139.97645017715698,36.11494452141532 139.97582220087446,36.11582678035624 139.9755218653289,36.116312018693804 139.97456624920775,36.11624584980825 139.97426591276385,36.11695164620267 139.97412939668843,36.11739276563698 139.97407478989894,36.11739276563698 139.97361063398492,36.11741482089053 139.97363793737966,36.118164718321225 139.9733649043305,36.119046941082104 139.97300996109712,36.11981887750364 139.97270962465325,36.12083341115935 139.97246389499887,36.12171560393439 139.97238198571293,36.12184793170542 139.97361063398492,36.12191409587011 139.9746754627867,36.12186998643318 139.97568568479906,36.12175971345806 139.97688702967625,36.12164943960243 139.97710545683424,36.12162738481272 139.97694163646577,36.1224213511623 139.9767232102061,36.123590230304636 139.9761498407131,36.12354612180943 139.97554916872363,36.12341379690078 139.97483928225688,36.12330352609412 139.97445703652707,36.12317120005092 139.97388366703404,36.123281471769076 139.97300996109712,36.12352406755255 139.97240928910767,36.12365639300096 139.97189052640417,36.12378871750069 139.97104412386196,36.12383282585959 139.9702523281093,36.12387693419369 139.97003390184966,36.123921042503014 139.96984277808642,36.12447239210164 139.96970626201102,36.12480319985699 139.96981547559,36.12678801929076 139.96967895861627,36.12755987959876 139.96905098233378,36.12760398583867 139.96834109676533,36.1277583567576 139.96712610019074,36.127692198244134 139.9670305383091,36.128111204365155 139.9675766044074,36.128287627211314 139.9672762679635,36.12910357817015 139.96637525953017,36.1292579461398 139.96623874255644,36.12989746818033 139.96744008833198,36.13002978288503 139.96722166117405,36.13108828886458 139.96678480865472,36.131198548735476 139.96651177560557,36.13117649662859 139.96634795613542,36.13194831378097 139.965638070567,36.13194831378097 139.96454593837043,36.13186010688443 139.96421829853182,36.13179395110283 139.96443672479145,36.13122060083617 139.96298965025983,36.13122060083617 139.9620613375334,36.13104418458265 139.96156987822465,36.130978028113255 139.96156987822465,36.13166164009785 139.96143336214922,36.131838054963424 139.96118763249484,36.132587813899434 139.96069617228773,36.133403720878405 139.96058695960707,36.133712439598455 139.96039583674212,36.1341314135799 139.96009550029825,36.134616538782424 139.95976786045964,36.13477089590865 139.9588122452368,36.1344180789667 139.9579385392999,36.133999106515766 139.95774741643498,36.134153464856496 139.95766550625078,36.13459448763595 139.9575835960665,36.134903201671534 139.9573105630174,36.13532216929545 139.95725595712622,36.135388322102784 139.95709213675772,36.13565293204898 139.9568191037086,36.13596164192053 139.95747438338586,36.13627035130304 139.95785662911567,36.136248300621325 139.95834808842446,36.13649085705398 139.9588941545227,36.13686571519081 139.95933100794034,36.13704211835757 139.95982246724913,36.13728467233637 139.96058695960707,36.13741697458632 139.96143336214922,36.13754927588771 139.96189751806327,36.13763747638954 139.9619794282475,36.13770362724496 139.96227976379308,36.13726262193968 139.96252549344746,36.13719647143796 139.9626074036317,36.13699801742168 139.9624162807668,36.13679956362896 139.96203403413867,36.13657905874556 139.96173369859312,36.13627035130304 139.96173369859312,36.136005743438886 139.9617883044843,36.13576318550667 139.96268931381593,36.13598369268281 139.96315346972997,36.136049844932465 139.9633445925949,36.13545447485437 139.96399987227215,36.1353662711732 139.9641636917423,36.135101660260354 139.96457324176518,36.134814998096225 139.96492818410024,36.134462181352575 139.96511930786346,36.13421961864907 139.96544694680378,36.133955003869644 139.96550155359327,36.13437397655604 139.96541964340904,36.134814998096225 139.96623874255644,36.13477089590865 139.96716705528283,36.13468269145912 139.96741278493724,36.135013456908126 139.96735817814775,36.135520627550164 139.96716705528283,36.135520627550164 139.96673020186523,36.13558677946471 139.96667559597404,36.13649085705398 139.9678769408513,36.13644675580827 139.96839570355482,36.136314452647916 139.96866873660397,36.136005743438886 139.96861412981448,36.13547652575917 139.96875064678818,36.1351678132536 139.9689963764426,36.13468269145912 139.9690782857285,36.13397705519581 139.96910558912325,36.13331551489218 139.96935131877765,36.13307294864435 139.96967895861627,36.13335961789768 139.96981547559,36.13450628298814 139.96981547559,36.13505755895939 139.97071648402334,36.13496935483207 139.970934910283,36.134814998096225 139.97098951707247,36.133932952537286 139.97109873065148,36.133469874577514 139.97112603314793,36.13333756639804 139.97227277213395,36.13344782310883 139.97232737892344,36.133888849853996 139.9728734450217,36.133932952537286 139.97344681451474,36.134087311008145 139.9738563636393,36.13430782289358 139.974538945813,36.13426372042097 139.97464815939196,36.13459448763595 139.97464815939196,36.135101660260354 139.97492119244112,36.1351678132536 139.97543995514468,36.13507960997572 139.9755976302163,36.13512012811041</coordinates>
</LineString>
</Placemark>
<Placemark>
<name>浸水範囲</name>
<styleUrl>#LineStyle1</styleUrl>
<LineString>
<coordinates>139.97040770794123,36.13895889894539 139.9710850789541,36.145916896778665 139.9724775466962,36.14529955343612 139.97477102377002,36.14457196431033 139.97501675432272,36.14540979406366 139.97561742631217,36.146313757738554 139.9788665195071,36.14536569783124 139.97903033897725,36.14582870558457 139.97933067542115,36.14635785343801 139.98877761766377,36.14329315419981 139.98768548546718,36.14064727369386 139.98858649479888,36.14053702709897 139.986948296504,36.136744438010325 139.98801312530583,36.13632547798025 139.98967862609712,36.13592856649099 139.99022469219537,36.135443449399645 139.989978962541,36.13423064427575 139.98946019983745,36.13277525323974 139.98913255999884,36.132069599099424 139.98907795410764,36.130878794030146 139.98902334731815,36.12982028522514 139.98891413373917,36.12929102510642 139.99115300492176,36.12915870988188 139.99284580910782,36.12907049912454 139.99257277605867,36.12783554246601 139.9921359235394,36.126512352744676 139.9919721040692,36.1256743211962 139.9915352506516,36.125012710907846 139.99082536508314,36.124130555908245 139.990661545613,36.122145669281764 139.990552332034,36.121175262435145 139.99120761081298,36.12099882287833 139.99120761081298,36.119896071018644 139.99186289049024,36.1189035800863 139.99276389892356,36.117558184604526 139.99393794130435,36.116102484423934 139.99459322008332,36.11524228517002 139.9950300735009,36.115330510740215 139.99497546671142,36.11462470050053 139.99497546671142,36.11438207649338 139.9953304099448,36.11444824694939 139.9954669260202,36.11442619013691 139.99538501583598,36.113610086622806 139.995494229415,36.11319100310493 139.9958218692536,36.113014545606696 139.99612220569747,36.11286014569622 139.99598568872378,36.11228665713845 139.99565804888513,36.1116469916324 139.99527580315532,36.11091908976375 139.99516658957634,36.110698512174 139.99418367095876,36.1106543971623 139.99371951504472,36.11056616561309 139.99366490825523,36.110102949805125 139.99369221164997,36.10957355748352 139.99374681843946,36.10924268483555 139.9930096294763,36.10922062656108 139.99287311250256,36.10855887834939 139.9930096294763,36.10780888919023 139.9930096294763,36.10692654017654 139.99317344894644,36.10613241788044 139.99325535913067,36.10575741297508 139.99281850571307,36.10564711664706 139.9927092930324,36.10558093950169 139.9931461455517,36.10454414920423 139.99374681843946,36.10363970367781 139.9946478268728,36.10255876747644 139.99560344299394,36.10143369548675 139.99634063195714,36.10044097195521 139.99680478787118,36.10066157834905 139.99718703449932,36.10033066888892 139.99797882935363,36.10048509342869 139.99830646919227,36.10013212239872 139.9976238870186,36.09988945362362 139.99792422346246,36.09924968716064 139.99816995311684,36.09880846582522 139.99836107598176,36.09854373168956 139.99855219884668,36.09821281331008 139.99885253529058,36.098014261468286 139.9991801751292,36.09783776987586 139.9991801751292,36.09770540164724 139.9989344454748,36.09710974077034 139.99871601921515,36.09664644561356 139.99857950224143,36.09627139542922 139.99849759205722,36.09620520966057 139.99811534632738,36.096183147725306 139.9973781573642,36.096183147725306 139.99696860734133,36.0961169626082 139.996640968401,36.095852219404726 139.99634063195714,36.09558747530936 139.99612220569747,36.09519035785693 139.99612220569747,36.09463880267187 139.99634063195714,36.09404311782395 139.996640968401,36.093513617278056 139.9968320912659,36.09311648934599 139.9971324277098,36.092763485216366 139.99770579720283,36.09256491888004 139.99819725651162,36.0924104787753 139.99773309969925,36.09203540837493 139.99748737004487,36.09174858824144 139.9972689437852,36.09146176778715 139.99710512431506,36.09132938809285 139.99644984463782,36.09150589357647 139.9950846802904,36.09172652505506 139.9946478268728,36.09179271459563 139.9947843438465,36.09227810140483 139.99423827774825,36.09260904477593 139.99371951504472,36.09271935940721 139.9932826616271,36.09223397532314 139.9930369319727,36.091616209756125 139.99295502268677,36.09091018570843 139.9930369319727,36.09064542569065 139.9934737853903,36.090270346141295 139.99407445737975,36.089873201821334 139.99462052347806,36.089189226021624 139.9951392861816,36.08852730908669 139.9956307454904,36.087799193004116 139.99609490230273,36.08718139258111 139.99658636161152,36.08691661927747 139.99694130394658,36.08636500602935 139.99715973110457,36.086056100426056 139.9973781573642,36.085614805016235 139.99767849380808,36.08519557215499 139.99811534632738,36.08455568607084 139.99847028956074,36.084158512878446 139.9987979285011,36.083717206816694 139.99904365815547,36.083364160474126 139.99934399459937,36.083099374313804 139.99945320817835,36.08303317817887 139.99956242085898,36.08265806230688 139.99964433104327,36.082216748548824 139.99963109167257,36.08212580178784 140.00006738543976,36.082115361982716 139.99954612541973,36.08158323137367 139.99950781496784,36.08135617825272 139.99937129799412,36.080981054379635 139.9991255683397,36.08053973120861 139.99885253529058,36.080054271915635 139.9986341090309,36.0797012091251 139.99836107598176,36.07956880962543 139.99778770648874,36.07959087622419 139.9974327641537,36.07930401068328 139.9970778209203,36.07881854448703 139.9968320912659,36.0783992753856 139.99650445142728,36.077869668732646 139.99640877635795,36.077805230280845 139.9964006043838,36.07779202080554 139.99671002818513,36.07724184063077 139.9967501810817,36.07718558849601 139.996795290882,36.07709023465376 139.9967974423471,36.077086408416335 139.99679840713773,36.07708364655527 139.99710512431506,36.07643530061873 139.99710751473202,36.0764101880912 139.9973688885471,36.07606005162252 139.99754354349622,36.075395150412184 139.99752762355274,36.07493104331472 139.99774985327932,36.07426389481947 139.99803557593015,36.07362240082391 139.99876575803412,36.072993730687884 139.9995276866002,36.07245486709029 140.00006738543976,36.071980151190644 140.0004800966341,36.071723546769434 140.00060708517765,36.07167222520386 140.00082931400587,36.07187750908696 140.00095630254938,36.07223675477469 140.0012737725607,36.0724676977202 140.00168648375507,36.072403546728 140.00206744758896,36.07210845308731 140.00276588233245,36.07162090433088 140.00328970794092,36.071030710069635 140.00373416649572,36.069901629563624 140.00400401591548,36.0689265023965 140.00400401591548,36.06807967088326 140.00390877473245,36.0675664357544 140.0039405220929,36.066822238434106 140.0044802218308,36.06620634559741 140.00455958888443,36.06544930436414 140.0049088062562,36.06423032579795 140.00500404743926,36.063434768526406 140.00505166803077,36.062831680645864 140.00546437922512,36.06229274743277 140.0061945604308,36.06188212910448 140.0070199828195,36.061189205725476 140.0077819113856,36.060650261262154 140.00848034612912,36.06034229165123 140.00902004496865,36.060085649267 140.00965498588957,36.05959802599518 140.00997245590088,36.05916172873631 140.01035342063307,36.05905907063338 140.01108360183872,36.05893074745327 140.01206775923308,36.05885375329951 140.01308366398789,36.05869976476601 140.01409956874272,36.05850727867537 140.0146868881738,36.058263463252935 140.0149249911314,36.05792981830466 140.0148614973088,36.05654389656176 140.0149249911314,36.05585092617433 140.01432179757094,36.05573543039549 140.0137186040105,36.05523494745477 140.01279794043873,36.05423397202516 140.01206775923308,36.053617980650074 140.01206775923308,36.053104651184526 140.0123852292444,36.05292498449961 140.01292492898224,36.05307898433285 140.01362336372577,36.053874644127355 140.0144805325766,36.05464463026349 140.01508372613705,36.05482429229663 140.01629011325798,36.05495262217295 140.01670282445232,36.054875624127014 140.01695680064103,36.053386982369126 140.01676631827493,36.05300198445389 140.01654408944668,36.052873651396986 140.01600438970883,36.05318165023678 140.01559167851445,36.05341264912036 140.0153218290947,36.05359231396581 140.01465514171164,36.05274531813083 140.01425830374836,36.052052314296816 140.0139884543286,36.05166730985311 140.0143535449314,36.0512951368829 140.01438529229185,36.05075612465884 140.01394083373708,36.050255610054826 140.0134646278218,36.04975509154197 140.01319477840204,36.049511249005036 140.01413131610315,36.04803533967725 140.01475038289468,36.046931598038846 140.01892511542974,36.04731662564531 140.01930608016195,36.04472406906393 140.02235379442638,36.04496792715557 140.0226553903083,36.04297853642261 140.02298873444897,36.042927196833716 140.02356018064899,36.04267049766076 140.0244649709897,36.042003075603894 140.024957050136,36.0412072950871 140.02505229042075,36.04018047094553 140.0250840377812,36.03951302705624 140.02571897780382,36.03883274284998 140.02608406930494,36.0383963304851 140.0263539187247,36.03754917114968 140.0264174125473,36.0367854356575 140.02668726196708,36.0361051278888 140.0269888587473,36.03555959370533 140.02729045552752,36.034866438588615 140.02689361756424,36.03360847472467 140.0257983457558,36.032042411159296 140.02467132658686,36.0309897927389 140.0231633426857,36.03028376062613 140.0215759917309,36.02970609321551 140.02052834051395,36.0289743748871 140.01960767694217,36.028300418202825 140.01906797720432,36.027915297612594 140.01814731363257,36.02753017441317 140.01717902946928,36.027517337182935 140.01592502265515,36.02753017441317 140.01446465934555,36.02759436198598 140.0128931816218,36.02768422391887 140.01190902422744,36.027517337182935 140.0111629688924,36.02688829944123 140.01049628150935,36.02605385379616 140.00987721471782,36.02524507452031 140.0091946541037,36.023935605033586 140.00868670172628,36.023332215251735 140.00775016492344,36.02276733487429 140.00675013339972,36.02158620846998 140.00581359659688,36.020854415452824 140.0050992886223,36.020623321050294 140.00076423735175,36.02034179948122 140.00079756664542,36.02033445245739 139.99955943306236,36.01964758262572 139.9986705168511,36.0190955151651 139.99728952149343,36.018106919059896 139.99646409910474,36.01743928885172 139.9956545499471,36.01704127550906 139.99454340400922,36.01655338635778 139.99387671662618,36.01600129649488 139.99344813220077,36.01529513006449 139.9932735230657,36.014550438558196 139.993098914829,36.014126731805035 139.99274969745724,36.0138314196687 139.9920036421222,36.01333067037929 139.99151156387418,36.01302251494206 139.9910671053194,36.0126758393618 139.9909242435448,36.01214940253868 139.99100361149678,36.0118027231184 139.99127346091657,36.011481721865096 139.99160680415895,36.01108367843745 139.9920671359448,36.01082687548759 139.992368732725,36.010518710262104 139.99273382422618,36.0102105445586 139.99306716746855,36.00983817566598 139.9933052704262,36.0094786451855 139.9935433724855,36.00905491116966 139.99333701688826,36.00877242031822 139.99305129423746,36.00854129121536 139.99255921509112,36.00851560983912 139.99197189566004,36.00857981290066 139.99165442475046,36.00886230371561 139.9913687020996,36.009234677217776 139.99100361149678,36.00940160267446 139.99078138177023,36.00940160267446 139.99068614058717,36.00913195401952 139.99059090030244,36.008258798523464 139.99028930352222,36.0075268810302 139.98981309760694,36.006794956742 139.98941626054196,36.006332685537245 139.9894638811335,36.00594745758394 139.98965436260127,36.00562643248838 139.98994008615045,36.00551086304678 139.99022580880128,36.0053952934358 139.99019406233913,36.00511279019805 139.98995595938152,36.00495869656779 139.9893845131815,36.00486880871995 139.9889559287561,36.00489449055739 139.98867020520692,36.005138471956016 139.9883686084267,36.00569063790273 139.9880511384154,36.00642257171618 139.98774954163517,36.006332685537245 139.98662252246626,36.005973139070036 139.98616219068035,36.005780524813645 139.9865114080521,36.005318247661066 139.98649553392272,36.00504858431314 139.98617806391144,36.00489449055739 139.98584472066906,36.004624826486875 139.98565423830294,36.004624826486875 139.98530502093118,36.004920173113156 139.985178033286,36.00534392935211 139.9849240570973,36.005331088507624 139.98428911617637,36.005215518633136 139.98354306173965,36.00489449055739 139.9838287843905,36.004355160767375 139.983955772934,36.00402128813086 139.9843367367679,36.00403412918865 139.98484468914532,36.00413685975579 139.9850351715114,36.004059812024664 139.98508279210296,36.003802986194934 139.98522565387754,36.00364889000487 139.98551137652836,36.003854351282456 139.98571773212555,36.003982764218236 139.98624155773402,36.00375162107395 139.98617806391144,36.00350763538391 139.98590821449167,36.00313523483201 139.98560661771143,36.00263441759882 139.9857018588945,36.00232622035016 139.98608282272838,36.001915289295994 139.98640029363798,36.00188960648822 139.98682887806342,36.00188960648822 139.9871463480747,36.00151719829478 139.98703523366058,36.0011961551617 139.98657490187472,36.00100352850914 139.9859558350832,36.00083658527187 139.98538438888318,36.00090079458652 139.9849716776888,36.00123468043575 139.98462246031707,36.00150435610036 139.9844002305905,36.00201802262367 139.98425736971424,36.00271146599604 139.9840986338103,36.00326364893892 139.98386053175093,36.0035975247835 139.9835748082018,36.00382866910623 139.98309860318486,36.00367457296637 139.98265414463003,36.003559000663834 139.98227318079617,36.0035333176647 139.98176522841874,36.00349479351367 139.98100329985263,36.00339206283671 139.98074932366393,36.00304534490541 139.98090805866957,36.00263441759882 139.98116203485827,36.002274854267185 139.98136839045546,36.00178687299325 139.9814001378159,36.00132457242643 139.98147950486958,36.000708167212466 139.98117790808934,36.00051553936788 139.98065408248087,36.000310069390615 139.98027311864698,35.999899127830034 139.98019375069498,35.99987344436561 139.98017787746392,36.000014705496646 139.98017787746392,36.00052838172331 139.9798127868611,36.00043848809831 139.97935245507523,36.000104598878 139.97922546653172,36.00011744130036 139.97922546653172,36.000502697737105 139.97928896035432,36.00102921233224 139.97919371917126,36.001542881223855 139.9791143521176,36.00196665561319 139.979050858295,36.00236474507212 139.9791143521176,36.002827039540804 139.97906673152607,36.00308386854931 139.97908260475714,36.003430587037926 139.9791778459402,36.003777303275264 139.97900323770347,36.00382866837952 139.97882862856844,36.003854351282456 139.97851115855715,36.00391855813985 139.97849528532606,36.00450925557717 139.97849528532606,36.004881649639714 139.97887624915998,36.00529256523495 139.97919371917126,36.00569063790273 139.97954293654303,36.006101549281816 139.97971754567806,36.00649961713848 139.9796064303656,36.006730752953615 139.97924133976278,36.0068334792806 139.97876513474583,36.00710313652383 139.97868576679386,36.007270066493774 139.9787968821063,36.00775801383375 139.9788603759289,36.00843856638693 139.978971490343,36.00865685548816 139.9791619727091,36.00863117487625 139.9799397745063,36.00843856638693 139.980844564847,36.00823311705522 139.98181284901025,36.00804050759339 139.98201920460744,36.00854129121536 139.9823049272583,36.009157635194974 139.98254303021594,36.0097611335063 139.98293986817922,36.01067279302543 139.98324146495943,36.011398261383256 139.98373354320748,36.01228422182073 139.98417800176225,36.012836337720465 139.98489230973684,36.01349116667798 139.98513041269447,36.013735121472436 139.98484468914532,36.01414599092204 139.9847335747312,36.01465957508549 139.98463833354813,36.015628954957315 139.98506691797354,36.01598845738629 139.9856859856634,36.01643783293487 139.986320925686,36.01687436623037 139.9867018895199,36.01702843656989 139.98743207162386,36.01746496732069 139.98797177046342,36.018145436070625 139.9879241498719,36.018530604415936 139.9879082766408,36.01877454361227 139.98754318603798,36.018864415604455 139.98719396866625,36.019288097614606 139.98703523366058,36.01986584141278 139.98698761306906,36.020417903476854 139.98701936042954,36.02122673230256 139.98708285425212,36.021611885587696 139.9871622213058,36.021611885587696 139.98763842722104,36.02156053207043 139.9882416207815,36.021432147767555 139.9887584961246,36.02140228708741 139.98863845784646,36.021412912227674 139.98844797637867,36.02281226860639 139.98847972284082,36.023345053163894 139.9883051146041,36.02420520377086 139.988114632238,36.02487277665754 139.98794002400126,36.0249498040461 139.98719396866625,36.02500115535447 139.9871463480747,36.025874125382074 139.98733683044082,36.0264133079413 139.98784478281823,36.02696532485928 139.98838448165776,36.027401799837165 139.98878131962104,36.02783185453357 139.9888130669815,36.028396697874584 139.98846384960973,36.0289487008952 139.98784478281823,36.02944935094581 139.98681300483236,36.03043780474725 139.9862574318634,36.03111816146803 139.98597170831425,36.03137489829869 139.98538438888318,36.031760002702164 139.9847018273707,36.032042411159296 139.98387640498203,36.032324817877445 139.98327321142156,36.03281261010358 139.98293986817922,36.033274726000485 139.98284462699615,36.03380102170165 139.98265414463003,36.0344941861949 139.982558903447,36.034827929751785 139.9828128796357,36.035058982490305 139.9837494173368,36.03517450787895 139.98528914770012,36.03544406815512 139.9861463174493,36.0354697407564 139.98659077510578,36.03563661064468 139.9871463480747,36.03568795498691 139.98789240340975,36.03570079088563 139.98846384960973,36.03575213518604 139.98846384960973,36.03638110287346 139.9885432166634,36.03730529008157 139.98868607843798,36.03865304431837 139.98901942257868,36.03869155128486 139.98954324818718,36.0385631941724 139.9900988211561,36.03847334465032 139.99038454470525,36.0385760303289 139.9904162911674,36.039076619187796 139.9903527973448,36.03950019177886 139.98994008615045,36.03954511596693 139.98952737495608,36.039634964266156 139.98943213377305,36.03980182532887 139.98947975436457,36.04008420495097 139.9895908687787,36.0406617962475 139.98952737495608,36.04086716103697 139.98892418139562,36.04102118445919 139.98865433197585,36.04112386608904 139.98867020520692,36.04126505401942 139.98922577817586,36.042548565151485 139.98935276582105,36.042779595238386 139.99005120056458,36.042535730368904 139.99067026735608,36.042266194366796 139.9913210815081,36.04179129632473 139.9915591844657,36.041816966130504 139.99152743710525,36.042259776952754 139.99125758768548,36.04347909729428 139.9911782197335,36.043684454735875 139.9908607497222,36.04373579455736 139.99033692411373,36.04372295924195 139.99046391175892,36.044069498949206 139.99043216439844,36.04462139140271 139.9904162911674,36.04522461883824 139.99033692411373,36.04607169559838 139.99020993557022,36.04667491192171 139.99033692411373,36.046764752085274 139.99076550853917,36.04682892398295 139.99079725589962,36.04703427268715 139.99078138177023,36.04766314953475 139.99057502617305,36.04788132997618 139.98990833879,36.04779149108684 139.98979722437585,36.048150846755334 139.98949562759563,36.04904922766031 139.9891305369928,36.04975509154197 139.98943213377305,36.04984492891667 139.98974960378433,36.049870596096646 139.99025755616174,36.04997326691173 139.99020993557022,36.050428865358484 139.9901464417476,36.05072404031721 139.9900353273335,36.051314386913994 139.98995595938152,36.05196889679085 139.98982897173633,36.05226406597446 139.98935276582105,36.05232823338916 139.98847972284082,36.0523795668475 139.98749556544647,36.05239240002529 139.98686062542387,36.05219989923372 139.98640029363798,36.052045897680465 139.98605107626622,36.05194322956881 139.98571773212555,36.05248223439001 139.98501929738202,36.053361316335796 139.9847335747312,36.05363081362594 139.98436848412837,36.05363081362594 139.98379703792835,36.05343831586321 139.9834001999651,36.05330998351776 139.98319384436792,36.05350248159436 139.98252715698484,36.05429813783389 139.98189221606393,36.05547877298648 139.98157474605262,36.05632574013121 139.98173348105828,36.058263463252935 139.98171760782722,36.05894357956283 139.98171760782722,36.05939271006755 139.98171760782722,36.05985466996981 139.98173348105828,36.06014980957844 139.98208269843005,36.06014980957844 139.98241604257075,36.060239634362276 139.98274938581312,36.06031662716 139.98305098259334,36.06049627697046 139.98343194642723,36.06050910882472 139.98387640498203,36.06059893319839 139.9844002305905,36.06082991031088 139.9847335747312,36.06090690253103 139.98482881591423,36.061394516965564 139.98489230973684,36.061805137838576 139.9849716776888,36.06208102273831 139.98508279210296,36.062748274565365 139.98508279210296,36.06304340332035 139.9846700809086,36.063081898356884 139.98335257937356,36.063325699575465 139.98247953639333,36.06345401558819 139.98189221606393,36.06371064698584 139.98119378221875,36.06383896309692 139.98105092044415,36.063980109560774 139.98157474605262,36.06437788571876 139.98197158401592,36.065494213017715 139.98240016844133,36.06675166742026 139.98251128285548,36.067418879635746 139.9822414334357,36.06924085362106 139.98213031902156,36.07107561626305 139.98213031902156,36.07220467919093 139.981987457247,36.07289750554962 139.98171760782722,36.07396239332955 139.9817811016498,36.0758098751916 139.981770357799,36.07583964771774 139.9816514558897,36.07583947854744 139.9815581523727,36.07642768728652 139.98133664309498,36.077041504928836 139.98087228236508,36.078349387728615 139.98064123387738,36.078752344021936 139.98036502797865,36.07906486778065 139.97982866009218,36.0794405634607 139.97968956315694,36.07963841878238 139.97919415934575,36.079966006003616 139.97881191271762,36.08056179680888 139.97851157627375,36.081444441878176 139.97777438731057,36.08290078428983 139.9764365254596,36.08431296992301 139.97534439326304,36.085217637174566 139.97433417125072,36.08576925919962 139.97310552297876,36.08612229474165 139.97209530096643,36.08623261847711 139.97073013572074,36.08607816520411 139.96950148744875,36.08581338891056 139.96881890437675,36.085636869918154 139.96824553578205,36.08634294133181 139.96761755949953,36.086806297227874 139.96715340358548,36.08693868381399 139.96627969764856,36.08755648614451 139.9655698120801,36.0881080917578 139.9651329586625,36.08847214884855 139.96511930786346,36.08891342821811 139.96606127138892,36.089167162842735 139.96642986542133,36.08944295975597 139.9666619442767,36.08980701139021 139.96720801037497,36.089818043253594 139.96775407557493,36.089575342627484 139.9680680637162,36.089299545452825 139.96823188408467,36.089255417698915 139.968791600982,36.08972978830319 139.9690919374259,36.0902041560446 139.96939227386977,36.09077780581104 139.97011581113557,36.09107566117403 139.97088030349352,36.09143970452024 139.97082569760232,36.09194715591429 139.97083934929972,36.09234429048089 139.97053901285582,36.09247666773989 139.96995199166543,36.09248769922856 139.96950148744875,36.09250976220127 139.969242106097,36.09250976220127 139.96883255607412,36.09289586176931 139.96836840016007,36.09302823809928 139.96764486289428,36.09335917903757 139.96696227982224,36.09367908653652 139.96726261626614,36.094175492947414 139.9675766044074,36.09472705138415 139.9679725027329,36.095311699231345 139.9683547484627,36.09596252875781 139.96820458068993,36.0960838696658 139.96772677307848,36.09628242638524 139.96748104252578,36.09642582794676 139.9675766044074,36.097937046445374 139.96700323491436,36.09835621134884 139.96675750525998,36.098819496425094 139.96640655300456,36.09905944051385</coordinates>
</LineString>
</Placemark>
<Placemark>
<name>浸水範囲</name>
<styleUrl>#LineStyle1</styleUrl>
<LineString>
<coordinates>139.96278487479924,36.15436078476165 139.9631398180326,36.154294647952284 139.96360397394665,36.15436078476165 139.96434116380814,36.15400805591774 139.9650510493766,36.153589188082854 139.9652421722415,36.153501004790265 139.96453228667303,36.15307111126954 139.96409543325544,36.15275144570093 139.9639316137853,36.15169323196724 139.9638770069958,36.15023816485873 139.9638770069958,36.14992951043762 139.96267566211856,36.14999565092842 139.96166544010623,36.15026021088305 139.96125589008335,36.150458631351405 139.9607644307746,36.14984132302982 139.9604640943307,36.149290151660495 139.9602183646763,36.148827164339714 139.9601364553904,36.148408268832625 139.95969960197277,36.14772480347363 139.9594538723184,36.14721771172128 139.9589624130096,36.14688699844726 139.95879859353943,36.146468092578225 139.95923544605873,36.145872800831306 139.95942656892365,36.14507907244165 139.95904432319384,36.144770398443505 139.95868937996048,36.14450581924592 139.95841634691132,36.14410894913902 139.95806140457623,36.143469542915604 139.9577883715271,36.14285218031244 139.95762455115863,36.14258759464512 139.9574334282937,36.142697838358444 139.9554129842691,36.14311676436196 139.95410242581286,36.146622426388845 139.9548669181708,36.147327948927625 139.9553583774796,36.147746850204456 139.95563141052872,36.148231891222224 139.95587714018313,36.148716929240464 139.95623208341652,36.14906968188314 139.95688736219546,36.14946652689109 139.95728326052097,36.14995155727408 139.95785662911567,36.15031532773017 139.95877129014468,36.150414537957374 139.95923544605873,36.150789329565725 139.95967229857803,36.15127435176798 139.9601364553904,36.151891648084664 139.96054600451492,36.1524428011712 139.96103746382371,36.153060088290566 139.9615016197378,36.1536112338905 139.96215689941505,36.15425055744036 139.96234802227994,36.15442692151524 139.96278487479924,36.15436078476165</coordinates>
</LineString>
</Placemark>
<Placemark>
<name>越水箇所</name>
<styleUrl>#LineStyle2</styleUrl>
<LineString>
<coordinates>139.95416046495006,36.135032552799935 139.95431909908237,36.13450726887542 139.9545411868676,36.13402041722034 139.95490604537196,36.13341825441612</coordinates>
</LineString>
</Placemark>
<Placemark>
<name>破堤箇所</name>
<styleUrl>#LineStyle3</styleUrl>
<LineString>
<coordinates>139.96640655300456,36.09905944051385 139.9664025629249,36.099062168504695 139.9668394154442,36.09992254496333 139.9670542241367,36.10022628018557</coordinates>
</LineString>
</Placemark>
<Placemark>
<name>浸水範囲（不明瞭）</name>
<styleUrl>#LineStyle4</styleUrl>
<LineString>
<coordinates>139.9755976302163,36.13512012811041 139.97604062803242,36.13523396619107 139.97642287376223,36.13587343953494 139.9765320873412,36.13642470517611 139.9765866941307,36.13704211835757 139.97664130002187,36.13763747638954 139.9766686034166,36.13807847958795 139.9765866941307,36.13851948030768 139.97636826697274,36.138784079694865 139.97601332463768,36.13907072808446 139.97554916872363,36.139313275066755 139.9749757992306,36.13953377226628 139.9744297331323,36.139644020996414 139.9739109704288,36.139644020996414 139.97339220772525,36.13944557389612 139.97270962465325,36.139357374701326 139.9722181653445,36.139269176132856 139.97169940264092,36.13913687700605 139.97096221367775,36.1390486781897 139.97040603704093,36.13894173458879</coordinates>
</LineString>
</Placemark>
</Document>
</kml>