<?xml version="1.0" encoding="UTF-8"?>
<kml xmlns="http://www.opengis.net/kml/2.2">
<Document>
 <name>DENKOKU-20150913</name>
<Style id="L000001">
 <LineStyle>
  <color>FFFF0000</color>
  <width>5</width>
 </LineStyle>
</Style>
<Placemark>
 <name></name>
 <description><![CDATA[浸水範囲]]></description>
 <styleUrl>#L000001</styleUrl>
 <LineString>
  <coordinates>139.995326836,36.033511304 139.993954576,36.035088528 139.993149228,36.035869291 139.993005171,36.036111515 139.993051226,36.037152197 139.993072525,36.037846417 139.992928804,36.038237914 139.9931921,36.039175806 139.993441802,36.039807386 139.993838703,36.040094765 139.99408282,36.040174051 139.994925864,36.039983182 139.99520205,36.040205711 139.995471963,36.040741554 139.995738873,36.04143879 139.995876571,36.042171587 139.996052706,36.043424943 139.996039232,36.044203982 139.995714148,36.04515359 139.995557484,36.04558968 139.99515586,36.045854867 139.994642801,36.046154046 139.99386598,36.046529284 139.993378912,36.046838573 139.993215682,36.047137096 139.993111752,36.047425146 139.992847348,36.049160514 139.992791332,36.050266693 139.992201581,36.051520178 139.991444873,36.052704153 139.990540642,36.0534805 139.989918146,36.053912661 139.989152034,36.054388143 139.988493318,36.054463002 139.987558881,36.054641121 139.986612242,36.054900448 139.985265976,36.055550466 139.984392547,36.05604591 139.984094077,36.0566644 139.983531292,36.057529489 139.983327612,36.058287359 139.982969596,36.059121269 139.983092973,36.060029519 139.984058796,36.060776488 139.985848609,36.06080197 139.987293736,36.060920743 139.988435858,36.061098228 139.989388438,36.061254716 139.990408445,36.061439149 139.989891668,36.064444887 139.988962241,36.064314193 139.98754753,36.064006423 139.987287192,36.065066661 139.986079363,36.064967727 139.986360101,36.063689682 139.985062211,36.063946811 139.984780016,36.064622759 139.98469735,36.065095303 139.984439966,36.065911533 139.984260342,36.066422381 139.984090604,36.067063509 139.983956655,36.067710834 139.983758971,36.068272825 139.983890054,36.068970045 139.983847203,36.069479856 139.983682798,36.070138114 139.983597505,36.070682988 139.983421764,36.071196042 139.983646689,36.071584154 139.983776305,36.072694263 139.983765772,36.073236307 139.983957385,36.074090199 139.984887892,36.074521939 139.985761709,36.074852512 139.985589897,36.075225547 139.985363391,36.075664763 139.98445968,36.075520087 139.98412855,36.076064343 139.986370262,36.076541208 139.984912506,36.08204038 139.981376078,36.081355266 139.980668928,36.081317961 139.978716566,36.081021868 139.977791123,36.083077472 139.976799525,36.084255148 139.97559151,36.085321708 139.974223985,36.086115055 139.973080152,36.086408552 139.973472282,36.086782461 139.978168308,36.088814469 139.97697001,36.09238063 139.979303723,36.094215783 139.980285545,36.092247911 139.980967701,36.092439573 139.980367738,36.093582749 139.980930206,36.093774219 139.980637099,36.094379409 139.981746904,36.094814794 139.980280874,36.097734669 139.980896333,36.098404332 139.981608043,36.09882767 139.982000519,36.099141903 139.984950802,36.099424608 139.985006787,36.098663304 139.985941573,36.098724254 139.986095912,36.097376261 139.989174212,36.097609492 139.988255772,36.105571323 139.993304942,36.105844573 139.996151784,36.10172745 139.99477411,36.101089812 139.997663474,36.09688969 139.998767305,36.09828751 139.999305677,36.097714318 139.998371754,36.09615293 139.997348594,36.09627985 139.996960656,36.09600483 139.994811391,36.098978627 139.995328313,36.099204224 139.9941374,36.100918628 139.993332476,36.100525031 139.993683599,36.09923016 139.9917235,36.098064944 139.990406364,36.097209846 139.990531463,36.095694193 139.990832185,36.094715184 139.991082925,36.094209718 139.99225874,36.094618225 139.992922953,36.094740233 139.993364776,36.094744367 139.993920383,36.093943782 139.994895209,36.093264336 139.995767758,36.092555244 139.996162465,36.092502142 139.997183475,36.092714495 139.998121195,36.09237288 139.997540301,36.091899515 139.997096664,36.091354323 139.995009353,36.091752176 139.994863696,36.092199666 139.994391835,36.09276009 139.993760115,36.092905112 139.992927815,36.091709599 139.992440064,36.091069991 139.993234989,36.090356674 139.994108539,36.089833501 139.994450386,36.088817185 139.995523784,36.087177469 139.995953456,36.087172344 139.99644591,36.086293498 139.99724587,36.085152601 139.996109989,36.085027266 139.99778792,36.082097542 139.998511038,36.082236808 139.99839823,36.07956404 139.997559277,36.079573792 139.996446021,36.077814781 139.996807257,36.077190854 139.996819379,36.076777317 139.996187068,36.076624015 139.995076541,36.07631657 139.995558124,36.075285904 139.993078175,36.074512199 139.994187977,36.072249828 139.9946692,36.071333172 139.995274715,36.070097959 139.995675441,36.06923907 139.998036385,36.070022351 139.999379007,36.070395555 140.000054752,36.070536631 140.000488584,36.070715756 140.000671027,36.070827686 140.001151341,36.069789429 140.002018924,36.069985644 140.002583497,36.068892704 140.002620387,36.068183959 140.002724097,36.067436028 140.002642985,36.066599519 140.002874895,36.065799034 140.002942003,36.065143213 140.003339315,36.064072036 140.002187683,36.063855358 140.002206891,36.063574365 140.002469219,36.062969159 140.001593889,36.062841586 140.00170148,36.062127154 140.001858553,36.061428058 140.002148309,36.060943334 140.002651701,36.060526698 140.003388998,36.060184056 140.003808425,36.060174152 140.004474648,36.060169094 140.005163677,36.060326979 140.006032361,36.059058523 140.006550906,36.058154783 140.007072503,36.057426156 140.008531864,36.055638057 140.008949974,36.05476998 140.009391012,36.054227509 140.009581899,36.053748552 140.009907532,36.052929223 140.010023714,36.05231678 140.010210313,36.051649365 140.010240632,36.051117507 140.010373846,36.050741701 140.010337873,36.050234166 140.010512189,36.049816807 140.010543374,36.049376819 140.01061215,36.049005414 140.010668142,36.048495063 140.010637356,36.048092398 140.010658428,36.047610566 140.010688063,36.047137798 140.010727624,36.046326599 140.010761035,36.044577534 140.015391431,36.041548121 140.015459179,36.04012826 140.017732926,36.040115805 140.018866816,36.041360702 140.020007036,36.041398199 140.02114579,36.041349182 140.022171893,36.041172595 140.022853134,36.040666214 140.023299883,36.040020567 140.022650082,36.039768727 140.02266962,36.039073025 140.021307534,36.038807796 140.024254367,36.036947639 140.024360894,36.035532809 140.025013416,36.035365892 140.025446136,36.033959758 140.026725458,36.033959036 140.027015291,36.033729782 140.026792444,36.033362003 140.026516911,36.032963474 140.026241445,36.032632273 140.025769076,36.032386089 140.025160828,36.031998436 140.024650157,36.031614566 140.024041705,36.031255762 140.023478368,36.030966572 140.022782507,36.0306028 140.022369554,36.030449468 140.021940092,36.030290642 140.021452843,36.030022791 140.020966352,36.029703305 140.020167535,36.029280754 140.019686403,36.029017425 140.019082239,36.028632908 140.018582904,36.028338286 140.018949,36.02786685 140.018585979,36.027699385 140.018254603,36.028152499 140.017455489,36.028042021 140.016511619,36.028019151 140.01578614,36.028132459 140.014805244,36.028209683 140.014075413,36.028223531 140.01339705,36.028248555 140.013233437,36.029830203 140.011980639,36.02986354 140.011326687,36.029724124 140.011323912,36.029204892 140.0091641,36.027617961 140.007099983,36.025989536 140.007193848,36.025341904 140.007582367,36.024934944 140.008791252,36.02567347 140.009875685,36.02636864 140.01065029,36.026791411 140.011439582,36.027185896 140.010853353,36.026557689 140.010359477,36.025805582 140.009689168,36.025067486 140.009341534,36.024406341 140.008901054,36.023610744 140.008314087,36.023139462 140.007702065,36.022663549 140.007187787,36.022191916 140.006718312,36.021711929 140.006290034,36.021308585 140.005654144,36.020925508 140.004994367,36.020735343 140.004214081,36.021775161 140.003781707,36.022104307 140.004527552,36.024280833 140.000794554,36.02420637 140.000254499,36.022811538 139.999727802,36.021915756 139.999430048,36.024228117 139.999378571,36.024841755 139.999519156,36.025207756 139.999620924,36.025489162 139.999616466,36.026458669 139.999717159,36.027150237 139.999667348,36.027473845 139.998689575,36.027241848 139.998083944,36.027088278 139.997534355,36.026921046 139.996904328,36.02679885 139.996319576,36.026661327 139.99568293,36.026482974 139.995225045,36.026440702 139.995221229,36.026447695 139.994528647,36.026274016 139.993333132,36.029766772 139.993024515,36.030907575 139.992748836,36.03262492 139.99363276,36.032704471 139.993982628,36.032982076 139.995326836,36.033511304</coordinates>
 </LineString>
</Placemark>
<Placemark>
 <name></name>
 <description><![CDATA[浸水範囲]]></description>
 <styleUrl>#L000001</styleUrl>
 <LineString>
  <coordinates>139.963639021,36.154142135 139.963792862,36.15431721 139.964313544,36.153822101 139.9630506,36.151936732 139.961925809,36.150192026 139.96166544,36.150260212 139.96125589,36.150458632 139.960764431,36.149841324 139.960218365,36.148827165 139.960136455,36.14840827 139.959631756,36.147584798 139.959408622,36.147596656 139.95788134,36.148248869 139.957587633,36.147833825 139.95692679,36.147015589 139.955472935,36.147703382 139.955358377,36.147746851 139.955634475,36.148248869 139.95587714,36.14871693 139.956232083,36.149069683 139.956887362,36.149466528 139.95718296,36.149828677 139.958086936,36.149410979 139.959672299,36.151274353 139.960316641,36.152115978 139.961793015,36.151349709 139.962446058,36.152434679 139.962583765,36.152639115 139.962808605,36.152971421 139.963147548,36.153442114 139.963445059,36.153853728 139.963639021,36.154142135</coordinates>
 </LineString>
</Placemark>
<Placemark>
 <name></name>
 <description><![CDATA[浸水範囲]]></description>
 <styleUrl>#L000001</styleUrl>
 <LineString>
  <coordinates>139.954495031,36.146984749 139.954672581,36.146914792 139.955818042,36.146238851 139.954764329,36.144851897 139.954102426,36.146622427 139.954495031,36.146984749</coordinates>
 </LineString>
</Placemark>
<Placemark>
 <name></name>
 <description><![CDATA[浸水範囲]]></description>
 <styleUrl>#L000001</styleUrl>
 <LineString>
  <coordinates>139.962520664,36.133594065 139.964400281,36.133917769 139.964656629,36.133253068 139.964670121,36.132501188 139.963080863,36.132189388 139.962520664,36.133594065</coordinates>
 </LineString>
</Placemark>
<Placemark>
 <name></name>
 <description><![CDATA[浸水範囲]]></description>
 <styleUrl>#L000001</styleUrl>
 <LineString>
  <coordinates>139.977919565,36.131188761 139.978609778,36.131105734 139.981135667,36.130275463 139.980797902,36.129326571 139.982060847,36.128947011 139.981913993,36.128033687 139.98109161,36.126266316 139.977992992,36.127203383 139.976318856,36.12772529 139.977185295,36.129326571 139.977919565,36.131188761</coordinates>
 </LineString>
</Placemark>
<Placemark>
 <name></name>
 <description><![CDATA[浸水範囲]]></description>
 <styleUrl>#L000001</styleUrl>
 <LineString>
  <coordinates>139.982310498,36.127820181 139.983602813,36.127523644 139.985159465,36.126966152 139.984278342,36.125376685 139.983514701,36.125519026 139.982486723,36.125863018 139.982383925,36.126515411 139.982310498,36.127820181</coordinates>
 </LineString>
</Placemark>
<Placemark>
 <name></name>
 <description><![CDATA[浸水範囲]]></description>
 <styleUrl>#L000001</styleUrl>
 <LineString>
  <coordinates>139.981576228,36.126005358 139.981899307,36.125898603 139.981958049,36.124641248 139.982002105,36.123229666 139.981517487,36.122411174 139.981047554,36.121640123 139.980386711,36.121557086 139.978521666,36.121592673 139.97736152,36.121746884 139.977047643,36.121907585 139.976762512,36.123379915 139.978653834,36.122826352 139.979432161,36.124617524 139.980886015,36.124154908 139.981576228,36.126005358</coordinates>
 </LineString>
</Placemark>
<Placemark>
 <name></name>
 <description><![CDATA[浸水範囲]]></description>
 <styleUrl>#L000001</styleUrl>
 <LineString>
  <coordinates>139.977449632,36.120714851 139.982472038,36.121070726 139.982530779,36.120145448 139.980724475,36.120074273 139.979725868,36.120026822 139.977655227,36.119825157 139.977449632,36.120714851</coordinates>
 </LineString>
</Placemark>
<Placemark>
 <name></name>
 <description><![CDATA[浸水範囲]]></description>
 <styleUrl>#L000001</styleUrl>
 <LineString>
  <coordinates>139.979299992,36.119006629 139.982868543,36.119184571 139.986011218,36.119433688 139.986965769,36.111592041 139.983550488,36.111528958 139.983330609,36.114150481 139.983166789,36.114415163 139.981310164,36.114348992 139.980108819,36.114238709 139.979813981,36.114237647 139.979299992,36.119006629</coordinates>
 </LineString>
</Placemark>
<Placemark>
 <name></name>
 <description><![CDATA[浸水範囲]]></description>
 <styleUrl>#L000001</styleUrl>
 <LineString>
  <coordinates>139.984968807,36.109540471 139.987156679,36.109610745 139.987671834,36.105790503 139.986716219,36.106187567 139.985514873,36.106849336 139.98524184,36.107334629 139.985096332,36.108624962 139.984968807,36.109540471</coordinates>
 </LineString>
</Placemark>
<Placemark>
 <name></name>
 <description><![CDATA[浸水範囲]]></description>
 <styleUrl>#L000001</styleUrl>
 <LineString>
  <coordinates>139.96688591,36.099988289 139.967287337,36.099988289 139.967830697,36.099940826 139.968418113,36.099727244 139.969637001,36.099252615 139.969563574,36.099905229 139.969622315,36.100415451 139.969813226,36.100462913 139.970562181,36.099228883 139.970709035,36.09794737 139.97107617,36.097935504 139.971134911,36.096986221 139.970855889,36.095502943 139.970606237,36.09512322 139.970459383,36.09512322 139.9703419,36.095336815 139.970253787,36.09655904 139.970004136,36.096820095 139.96979854,36.097508328 139.969651686,36.097662586 139.967816012,36.098718653 139.967669158,36.098884775 139.967639787,36.09909836 139.967595731,36.09926448 139.96740482,36.099347541 139.966699921,36.098920372 139.966402563,36.099062169 139.966803071,36.099850966 139.966839415,36.099922546 139.96688591,36.099988289</coordinates>
 </LineString>
</Placemark>
<Placemark>
 <name></name>
 <description><![CDATA[浸水範囲]]></description>
 <styleUrl>#L000001</styleUrl>
 <LineString>
  <coordinates>139.971795754,36.093948439 139.973455204,36.094470566 139.974453811,36.092346436 139.972779676,36.091848028 139.972118833,36.093010974 139.971795754,36.093948439</coordinates>
 </LineString>
</Placemark>
<Placemark>
 <name></name>
 <description><![CDATA[浸水範囲]]></description>
 <styleUrl>#L000001</styleUrl>
 <LineString>
  <coordinates>139.985462939,36.001858996 139.986083912,36.001490303 139.986629978,36.001182267 139.986042957,36.000729451 139.985660711,36.000817805 139.985278465,36.000972426 139.98507369,36.001127045 139.984732399,36.001381063 139.984459366,36.001679256 139.984227288,36.001933272 139.984073795,36.002207888 139.984812752,36.002416352 139.985462939,36.001858996</coordinates>
 </LineString>
</Placemark>
<Placemark>
 <name></name>
 <description><![CDATA[浸水範囲]]></description>
 <styleUrl>#L000001</styleUrl>
 <LineString>
  <coordinates>139.979046486,36.008669914 139.980165922,36.008426963 139.980061589,36.007556774 139.979984419,36.00728664 139.978869015,36.007576629 139.978800757,36.007974189 139.979046486,36.008669914</coordinates>
 </LineString>
</Placemark>
<Placemark>
 <name></name>
 <description><![CDATA[浸水範囲]]></description>
 <styleUrl>#L000001</styleUrl>
 <LineString>
  <coordinates>139.988083879,36.007223241 139.987128263,36.007399935 139.987619723,36.009487106 139.988411519,36.009398762 139.988083879,36.007223241</coordinates>
 </LineString>
</Placemark>
<Placemark>
 <name></name>
 <description><![CDATA[浸水範囲]]></description>
 <styleUrl>#L000001</styleUrl>
 <LineString>
  <coordinates>139.981419156,36.003818132 139.98197173,36.003892635 139.982232668,36.003867801 139.982570352,36.003793298 139.982739194,36.003756046 139.982984782,36.003805715 139.983245719,36.003892635 139.983598753,36.003929887 139.983629451,36.003731211 139.982984782,36.003582204 139.982555002,36.003495284 139.982017778,36.003458032 139.981495903,36.00342078 139.981158219,36.003346276 139.980989377,36.003333859 139.980866582,36.003371111 139.980897281,36.00342078 139.981250314,36.003706377 139.981419156,36.003818132</coordinates>
 </LineString>
</Placemark>
</Document>
</kml>
