<?xml version="1.0" encoding="UTF-8"?>
<kml xmlns="http://www.opengis.net/kml/2.2">
<Document>
 <name>DENKOKU-20150914</name>
<Style id="L000001">
 <LineStyle>
  <color>FFFF0000</color>
  <width>5</width>
 </LineStyle>
</Style>
<Placemark>
 <name></name>
 <description><![CDATA[浸水範囲]]></description>
 <styleUrl>#L000001</styleUrl>
 <LineString>
  <coordinates>139.981419156,36.003818132 139.98197173,36.003892635 139.982232668,36.003867801 139.982570352,36.003793298 139.982739194,36.003756046 139.982984782,36.003805715 139.983245719,36.003892635 139.983598753,36.003929887 139.983629451,36.003731211 139.982984782,36.003582204 139.982555002,36.003495284 139.982017778,36.003458032 139.981495903,36.00342078 139.981158219,36.003346276 139.980989377,36.003333859 139.980866582,36.003371111 139.980897281,36.00342078 139.981250314,36.003706377 139.981419156,36.003818132</coordinates>
 </LineString>
</Placemark>
<Placemark>
 <name></name>
 <description><![CDATA[浸水範囲]]></description>
 <styleUrl>#L000001</styleUrl>
 <LineString>
  <coordinates>139.978917206,36.008303887 139.98011847,36.008031188 139.980061589,36.007556774 139.979984419,36.00728664 139.978869015,36.007576629 139.978800757,36.007974189 139.978917206,36.008303887</coordinates>
 </LineString>
</Placemark>
<Placemark>
 <name></name>
 <description><![CDATA[浸水範囲]]></description>
 <styleUrl>#L000001</styleUrl>
 <LineString>
  <coordinates>139.984805559,36.001326611 139.985551627,36.001806339 139.986083912,36.001490303 139.986629978,36.001182267 139.986042957,36.000729451 139.985660711,36.000817805 139.985278465,36.000972426 139.98507369,36.001127045 139.984805559,36.001326611</coordinates>
 </LineString>
</Placemark>
<Placemark>
 <name></name>
 <description><![CDATA[浸水範囲]]></description>
 <styleUrl>#L000001</styleUrl>
 <LineString>
  <coordinates>139.98384034,36.111586574 139.983545709,36.114479388 139.98658785,36.114696749 139.986943152,36.111777848 139.98384034,36.111586574</coordinates>
 </LineString>
</Placemark>
<Placemark>
 <name></name>
 <description><![CDATA[浸水範囲]]></description>
 <styleUrl>#L000001</styleUrl>
 <LineString>
  <coordinates>139.996697279,36.096265505 139.997663474,36.09688969 139.998767305,36.09828751 139.999305677,36.097714318 139.998371754,36.09615293 139.997348594,36.09627985 139.996960656,36.09600483 139.996697279,36.096265505</coordinates>
 </LineString>
</Placemark>
<Placemark>
 <name></name>
 <description><![CDATA[浸水範囲]]></description>
 <styleUrl>#L000001</styleUrl>
 <LineString>
  <coordinates>139.990559713,36.100361225 139.988871229,36.100236139 139.988255772,36.105571323 139.993304942,36.105844573 139.996151784,36.10172745 139.99477411,36.101089812 139.9941374,36.100918628 139.993332476,36.100525031 139.993185056,36.100555375 139.992417809,36.100495412 139.990559713,36.100361225</coordinates>
 </LineString>
</Placemark>
<Placemark>
 <name></name>
 <description><![CDATA[浸水範囲]]></description>
 <styleUrl>#L000001</styleUrl>
 <LineString>
  <coordinates>139.985457044,36.096150182 139.981242599,36.09581923 139.980280874,36.097734669 139.980896333,36.098404332 139.981608043,36.09882767 139.982000519,36.099141903 139.984950802,36.099424608 139.985006787,36.098663304 139.985941573,36.098724254 139.986026184,36.097985263 139.986095912,36.097376261 139.989174212,36.097609492 139.991205221,36.097728473 139.990406364,36.097209846 139.990467263,36.096472016 139.990531463,36.095694193 139.990891209,36.094596197 139.989146667,36.094475044 139.988915724,36.096372352 139.985457044,36.096150182</coordinates>
 </LineString>
</Placemark>
<Placemark>
 <name></name>
 <description><![CDATA[浸水範囲]]></description>
 <styleUrl>#L000001</styleUrl>
 <LineString>
  <coordinates>139.968180074,36.098788962 139.96872919,36.098532246 139.968944187,36.098350559 139.9688602,36.098117931 139.968441061,36.0981985 139.968023481,36.09840938 139.967705241,36.098600586 139.967411161,36.098771274 139.967149496,36.099026364 139.966914815,36.099134456 139.966641649,36.099095908 139.966402563,36.099062169 139.966525685,36.099304657 139.966625908,36.099502047 139.966888186,36.099453226 139.96726432,36.099262398 139.967384062,36.099157998 139.967827741,36.098904945 139.968457379,36.09865932 139.968180074,36.098788962</coordinates>
 </LineString>
</Placemark>
<Placemark>
 <name></name>
 <description><![CDATA[浸水範囲]]></description>
 <styleUrl>#L000001</styleUrl>
 <LineString>
  <coordinates>139.971795754,36.093948439 139.973455204,36.094470566 139.974453811,36.092346436 139.972779676,36.091848028 139.972118833,36.093010974 139.971795754,36.093948439</coordinates>
 </LineString>
</Placemark>
<Placemark>
 <name></name>
 <description><![CDATA[浸水範囲]]></description>
 <styleUrl>#L000001</styleUrl>
 <LineString>
  <coordinates>139.986370262,36.076541208 139.986279231,36.076884619 139.985387203,36.080249695 139.984530937,36.083055854 139.980355138,36.082127798 139.978971904,36.082222713 139.978006251,36.085038484 139.979206793,36.085470859 139.977766573,36.090010059 139.983252098,36.091829665 139.984909368,36.088434147 139.985013763,36.088476329 139.989815932,36.088550146 139.989581043,36.090490456 139.992282263,36.090912257 139.992243115,36.090754082 139.992464954,36.0902901 139.99339146,36.08836033 139.994174422,36.086789062 139.996443694,36.082154527 139.995654426,36.081862435 139.995993741,36.081062326 139.994467767,36.08052204 139.994922526,36.07962083 139.992189259,36.078744763 139.992031346,36.078698128 139.992223588,36.077661179 139.992341488,36.077179845 139.992541017,36.076097507 139.99488932,36.076798392 139.995558124,36.075285904 139.993078175,36.074512199 139.995675441,36.06923907 139.998036385,36.070022351 139.999064081,36.068173342 140.00008355,36.06847827 140.000123119,36.068316015 140.000675661,36.066740394 139.998434797,36.065921555 139.997160881,36.065512132 139.998814669,36.061821028 139.997602147,36.061448807 139.998415611,36.059413963 139.998887574,36.058132853 140.000606593,36.058641577 140.001128438,36.05776992 140.002264219,36.055164196 140.003058498,36.053374262 140.005437498,36.053883017 140.007094478,36.054229607 140.007110472,36.054168415 140.007632317,36.053039227 140.008092769,36.051460198 140.01012969,36.051937731 140.010210313,36.051649365 140.010240632,36.051117507 140.010373846,36.050741701 140.010337873,36.050234166 140.010408495,36.050065079 140.009520169,36.049868728 140.009765743,36.048478879 140.009658304,36.047064187 140.009765743,36.044631851 140.009934575,36.041684403 140.010763388,36.041671992 140.010870827,36.04100182 140.011761033,36.040976999 140.011922191,36.040089633 140.014899778,36.040095838 140.015459179,36.04012826 140.017732926,36.040115805 140.018866816,36.041360702 140.019391336,36.041377825 140.020007036,36.041398199 140.021149627,36.041349182 140.022171893,36.041172595 140.02265466,36.040813744 140.022844001,36.040673003 140.023299883,36.040020567 140.022650082,36.039768727 140.02266962,36.039073025 140.021307534,36.038807796 140.024254367,36.036947639 140.02435783,36.035573508 140.024488682,36.034394425 140.025417259,36.033401484 140.02581248,36.033367352 140.026136568,36.032577614 140.025769076,36.032386089 140.02530326,36.032089212 140.024573098,36.032569886 140.023621498,36.031787928 140.021196453,36.030186751 140.020582518,36.030099865 140.020851784,36.029642702 140.019686403,36.029017425 140.019082239,36.028632908 140.018582904,36.028338286 140.018949,36.02786685 140.018585979,36.027699385 140.018254603,36.028152499 140.017455489,36.028042021 140.017102261,36.028033462 140.016833464,36.029647247 140.013233437,36.029830203 140.012240117,36.029856635 140.011980639,36.02986354 140.011326687,36.029724124 140.011323912,36.029204892 140.009355412,36.027758529 140.009106051,36.027572165 140.008575311,36.027153476 140.007855454,36.026585547 140.007292508,36.026141424 140.006826527,36.0265033 140.004527552,36.024280833 140.002096679,36.024232344 140.001930392,36.024815123 140.001285759,36.025820586 140.000963443,36.025808173 140.00090205,36.02483995 139.999582089,36.024740644 139.999519156,36.025207756 139.999620924,36.025489162 139.999616466,36.026458669 139.999637067,36.026600162 140.000656476,36.026826036 140.000549037,36.02714877 140.001684817,36.027285311 140.003419185,36.027378407 140.003925682,36.02678259 140.004386133,36.02721704 140.003204308,36.028855515 140.002406192,36.028632089 140.002344798,36.028942403 140.000549037,36.028979641 140.000441598,36.028607264 140.000410901,36.027999044 139.999198379,36.027862504 139.999106289,36.028718977 139.99736041,36.02981438 139.9969767,36.029442007 139.996163236,36.02976473 139.995595345,36.029913679 139.995533952,36.031365916 139.996286023,36.031415564 139.996009752,36.033252542 139.995886965,36.035567321 139.997820861,36.035157741 139.997820861,36.036001723 139.99831201,36.036312008 139.9993557,36.036299596 139.999374008,36.037361781 139.998388752,36.037317324 139.996347416,36.036994631 139.995058507,36.036645811 139.99402981,36.036572646 139.99402981,36.03745695 139.996255326,36.037295604 139.996838565,36.037866518 139.996838565,36.040435583 139.997222274,36.043491667 139.99783621,36.043528898 139.997958997,36.043578539 139.997655866,36.045024318 139.997164718,36.044937448 139.996704266,36.046426637 139.99638195,36.046439047 139.995967544,36.046327359 139.995307563,36.047680016 139.994785718,36.048585911 139.994893157,36.048920965 139.994724324,36.049553842 139.994202479,36.049454568 139.994263873,36.048958194 139.99291758,36.04869956 139.992846586,36.049175565 139.992814767,36.049803904 139.993956905,36.04996645 139.993450408,36.050984001 139.993419712,36.051235284 139.99429457,36.051433828 139.994018299,36.052141138 139.993296925,36.052997347 139.991556192,36.052529981 139.991444873,36.052704153 139.990540642,36.0534805 139.989897229,36.053925642 139.989438199,36.054210537 139.992069054,36.05468492 139.991501163,36.056645437 139.991102105,36.058519049 139.99093711,36.058500438 139.988005568,36.057923469 139.983918057,36.05693497 139.983531292,36.057529489 139.983406105,36.057995296 139.983892201,36.05806616 139.98361593,36.058885081 139.990632932,36.06039246 139.990408445,36.061439149 139.9934082,36.062104846 139.992610084,36.064176841 139.991221055,36.063841852 139.991067571,36.064226469 139.989943483,36.06414352 139.989891668,36.064444887 139.98989342,36.064803392 139.987460596,36.064360467 139.987302309,36.065005097 139.987287192,36.065066661 139.9860832,36.064970829 139.98599493,36.065144581 139.985365646,36.066658201 139.984260342,36.066422381 139.984105345,36.067007831 139.984086217,36.067084709 139.983996561,36.067517985 139.988235794,36.068497458 139.987537443,36.070215713 139.985442388,36.069762891 139.98566494,36.068863443 139.983798625,36.068483744 139.983888762,36.068985412 139.983849096,36.069457341 139.983673445,36.070197866 139.983597505,36.070682988 139.983421764,36.071196042 139.983646689,36.071584154 139.983678892,36.071859962 139.983765772,36.073236307 139.986478404,36.073869207 139.986171436,36.074774801 139.986984901,36.07493607 139.986370262,36.076541208</coordinates>
 </LineString>
</Placemark>
<Placemark>
 <name></name>
 <description><![CDATA[浸水範囲]]></description>
 <styleUrl>#L000001</styleUrl>
 <LineString>
  <coordinates>140.005645825,36.047812546 140.005662178,36.046629502 140.006513009,36.046732906 140.006474638,36.047955256 140.005645825,36.047812546</coordinates>
 </LineString>
</Placemark>
<Placemark>
 <name></name>
 <description><![CDATA[浸水範囲]]></description>
 <styleUrl>#L000001</styleUrl>
 <LineString>
  <coordinates>140.005922096,36.045885937 140.005899074,36.045885937 140.005876051,36.045432975 140.006044883,36.04527785 140.005998838,36.043974793 140.005914422,36.043310845 140.005922096,36.042454531 140.006674167,36.042435916 140.006681841,36.044074074 140.006574403,36.045848707 140.005922096,36.045885937</coordinates>
 </LineString>
</Placemark>
<Placemark>
 <name></name>
 <description><![CDATA[浸水範囲]]></description>
 <styleUrl>#L000001</styleUrl>
 <LineString>
  <coordinates>140.006229064,36.036664859 140.006407368,36.034238951 140.005699545,36.03421048 140.005438622,36.034086363 140.005384903,36.03330442 140.00616767,36.033360273 140.00631348,36.032174932 140.006374874,36.030759947 140.007103922,36.030809596 140.007065551,36.033572826 140.007034854,36.035088604 140.006973461,36.036664859 140.006229064,36.036664859</coordinates>
 </LineString>
</Placemark>
<Placemark>
 <name></name>
 <description><![CDATA[浸水範囲]]></description>
 <styleUrl>#L000001</styleUrl>
 <LineString>
  <coordinates>139.963639021,36.154142135 139.963792862,36.15431721 139.964313544,36.153822101 139.9630506,36.151936732 139.961925809,36.150192026 139.96166544,36.150260212 139.96125589,36.150458632 139.960764431,36.149841324 139.960218365,36.148827165 139.960136455,36.14840827 139.959631756,36.147584798 139.959408622,36.147596656 139.95788134,36.148248869 139.957587633,36.147833825 139.95692679,36.147015589 139.955472935,36.147703382 139.955358377,36.147746851 139.955634475,36.148248869 139.95587714,36.14871693 139.956232083,36.149069683 139.956887362,36.149466528 139.95718296,36.149828677 139.958086936,36.149410979 139.959672299,36.151274353 139.960316641,36.152115978 139.961793015,36.151349709 139.962446058,36.152434679 139.962583765,36.152639115 139.962808605,36.152971421 139.963147548,36.153442114 139.963445059,36.153853728 139.963639021,36.154142135</coordinates>
 </LineString>
</Placemark>
<Placemark>
 <name></name>
 <description><![CDATA[浸水範囲]]></description>
 <styleUrl>#L000001</styleUrl>
 <LineString>
  <coordinates>139.954495031,36.146984749 139.954672581,36.146914792 139.955818042,36.146238851 139.954764329,36.144851897 139.954102426,36.146622427 139.954495031,36.146984749</coordinates>
 </LineString>
</Placemark>
</Document>
</kml>
