<?xml version="1.0" encoding="UTF-8"?>
<kml xmlns="http://www.opengis.net/kml/2.2">
<Document>
<Style id="LineStyle1">
  <LineStyle>
  <color>ffFF0000</color>
  <width>5</width>
  </LineStyle>
</Style>
<Style id="LineStyle2">
  <LineStyle>
  <color>ffFF00FF</color>
  <width>5</width>
  </LineStyle>
</Style>
<Style id="LineStyle3">
  <LineStyle>
  <color>ff0000FF</color>
  <width>5</width>
  </LineStyle>
</Style>
<Style id="LineStyle4">
  <LineStyle>
  <color>ffFF3366</color>
  <width>5</width>
  </LineStyle>
</Style>
<Placemark>
<description><![CDATA[ 浸水範囲 ]]></description>
<styleUrl>#LineStyle1</styleUrl>
<LineString>
<coordinates>139.9707028606429,36.14161120379723 139.9710850789541,36.145916896778665 139.9724775466962,36.14529955343612 139.97477102377002,36.14457196431033 139.97501675432272,36.14540979406366 139.97561742631217,36.146313757738554 139.9788665195071,36.14536569783124 139.98853476198946,36.14248689219141 139.98768548546718,36.14064727369386 139.98858649479888,36.14053702709897 139.986948296504,36.136744438010325 139.98801312530583,36.13632547798025 139.98967862609712,36.13592856649099 139.99022469219537,36.135443449399645 139.989978962541,36.13423064427575 139.98946019983745,36.13277525323974 139.98913255999884,36.132069599099424 139.98907795410764,36.130878794030146 139.98902334731815,36.12982028522514 139.98891413373917,36.12929102510642 139.99115300492176,36.12915870988188 139.99284580910782,36.12907049912454 139.99257277605867,36.12783554246601 139.9921359235394,36.126512352744676 139.9919721040692,36.1256743211962 139.9915352506516,36.125012710907846 139.99082536508314,36.124130555908245 139.990661545613,36.122145669281764 139.99064677590738,36.12192725185256 139.9861346256156,36.12226303600616 139.9864989091271,36.11951461826867 139.98979861725832,36.11978637527019 139.99015994641536,36.11693694180785 139.99258874311357,36.117083402234506 139.99377020918692,36.11538397553079 139.99392915951367,36.1150657038014 139.99402743565986,36.114638566456755 139.9942548827667,36.113532628782266 139.9943853323494,36.11224886306621 139.99455945039048,36.11072031198743 139.99418367095876,36.1106543971623 139.99371951504472,36.11056616561309 139.99366490825523,36.110102949805125 139.99369221164997,36.10957355748352 139.99374681843946,36.10924268483555 139.9930096294763,36.10922062656108 139.99287311250256,36.10855887834939 139.9930096294763,36.10780888919023 139.9930096294763,36.10692654017654 139.99317344894644,36.10613241788044 139.99325535913067,36.10575741297508 139.99437008363248,36.10421912473646 139.9961994047922,36.10175208695952 139.99560344299394,36.10143369548675 139.99634063195714,36.10044097195521 139.99680478787118,36.10066157834905 139.99718703449932,36.10033066888892 139.99797882935363,36.10048509342869 139.99830646919227,36.10013212239872 139.9976238870186,36.09988945362362 139.99792422346246,36.09924968716064 139.99816995311687,36.09880846582522 139.99836107598176,36.09854373168956 139.99855219884668,36.09821281331008 139.99885253529058,36.098014261468286 139.9991801751292,36.09783776987586 139.9991801751292,36.09770540164724 139.9989344454748,36.09710974077034 139.99871601921515,36.09664644561356 139.99857950224143,36.09627139542922 139.99849759205722,36.09620520966057 139.99811534632738,36.096183147725306 139.9973781573642,36.096183147725306 139.99684717950416,36.096073354886116 139.9959663693056,36.095939435054575 139.99507238565778,36.09579461309556 139.99355872913497,36.09501592483913 139.99351825318925,36.0946497048043 139.99381763134033,36.09420665089928 139.99430685553097,36.09370985817989 139.99573924073135,36.0926258825656 139.99610814776437,36.09251319930418 139.9971324277098,36.092763485216366 139.99770579720283,36.09256491888004 139.99819725651162,36.0924104787753 139.99773309969925,36.09203540837493 139.99748737004487,36.09174858824144 139.9972689437852,36.09146176778715 139.99710512431506,36.09132938809285 139.99644984463782,36.09150589357647 139.9950846802904,36.09172652505506 139.9946478268728,36.09179271459563 139.9947843438465,36.09227810140483 139.99423827774825,36.09260904477593 139.99371951504472,36.09271935940721 139.9932826616271,36.09223397532314 139.9930369319727,36.091616209756125 139.99295502268677,36.09091018570843 139.9930369319727,36.09064542569065 139.9934737853903,36.090270346141295 139.99407445737975,36.089873201821334 139.99462052347806,36.089189226021624 139.9951392861816,36.08852730908669 139.9956307454904,36.087799193004116 139.99609490230276,36.08718139258111 139.99658636161152,36.08691661927747 139.99694130394658,36.08636500602935 139.99715973110457,36.086056100426056 139.9973781573642,36.085614805016235 139.99767849380808,36.08519557215499 139.99811534632738,36.08455568607084 139.99847028956074,36.084158512878446 139.9987979285011,36.083717206816694 139.99904365815547,36.083364160474126 139.99934399459937,36.083099374313804 139.99945320817835,36.08303317817887 139.999562420859,36.08265806230688 139.99964433104327,36.082216748548824 139.99963109167257,36.08212580178784 140.00006738543976,36.082115361982716 139.99954612541973,36.08158323137367 139.99950781496784,36.08135617825272 139.99937129799412,36.080981054379635 139.9991255683397,36.08053973120861 139.99885253529058,36.080054271915635 139.9986341090309,36.0797012091251 139.99836107598176,36.07956880962543 139.99778770648874,36.07959087622419 139.9974327641537,36.07930401068328 139.9970778209203,36.07881854448703 139.9968320912659,36.0783992753856 139.99650445142728,36.077869668732646 139.99640877635795,36.077805230280845 139.9964006043838,36.07779202080554 139.99671002818513,36.07724184063077 139.9967501810817,36.07718558849601 139.996795290882,36.07709023465376 139.9967974423471,36.077086408416335 139.99679840713773,36.07708364655527 139.99710512431506,36.07643530061873 139.99710751473202,36.0764101880912 139.9973688885471,36.07606005162252 139.99754354349622,36.075395150412184 139.99752762355274,36.07493104331472 139.99774985327932,36.07426389481947 139.99803557593015,36.07362240082391 139.99876575803412,36.072993730687884 139.9995276866002,36.07245486709029 140.00006738543976,36.071980151190644 140.0004800966341,36.071723546769434 140.00060708517765,36.07167222520386 140.00082931400587,36.07187750908696 140.00095630254938,36.07223675477469 140.0012737725607,36.0724676977202 140.00168648375507,36.072403546728 140.00206744758896,36.07210845308731 140.00276588233245,36.07162090433088 140.00328970794092,36.071030710069635 140.00373416649572,36.069901629563624 140.00400401591548,36.0689265023965 140.00400401591548,36.06807967088326 140.00390877473245,36.0675664357544 140.0039405220929,36.066822238434106 140.0044802218308,36.06620634559741 140.00455958888443,36.06544930436414 140.0049088062562,36.06423032579795 140.00500404743926,36.063434768526406 140.00505166803077,36.062831680645864 140.00546437922512,36.06229274743277 140.0061945604308,36.06188212910448 140.0070199828195,36.061189205725476 140.0077819113856,36.060650261262154 140.00848034612912,36.06034229165123 140.00902004496865,36.060085649267 140.00965498588957,36.05959802599518 140.00997245590088,36.05916172873631 140.01035342063307,36.05905907063338 140.01108360183872,36.05893074745327 140.01206775923308,36.05885375329951 140.01308366398789,36.05869976476601 140.01409956874272,36.05850727867537 140.0146868881738,36.058263463252935 140.0149249911314,36.05792981830466 140.0148614973088,36.05654389656176 140.0149249911314,36.05585092617433 140.01432179757094,36.05573543039549 140.0137186040105,36.05523494745477 140.01279794043873,36.05423397202516 140.01206775923308,36.053617980650074 140.01206775923308,36.053104651184526 140.0123852292444,36.05292498449961 140.01292492898224,36.05307898433285 140.01362336372577,36.053874644127355 140.0144805325766,36.05464463026349 140.01508372613705,36.05482429229663 140.01629011325798,36.05495262217295 140.01670282445232,36.054875624127014 140.01695680064103,36.053386982369126 140.01676631827493,36.05300198445389 140.01654408944668,36.052873651396986 140.01600438970883,36.05318165023678 140.01559167851445,36.05341264912036 140.0153218290947,36.05359231396581 140.01465514171164,36.05274531813083 140.01425830374836,36.052052314296816 140.0139884543286,36.05166730985311 140.0143535449314,36.0512951368829 140.01438529229185,36.05075612465884 140.01394083373708,36.050255610054826 140.0134646278218,36.04975509154197 140.01319477840204,36.049511249005036 140.01413131610315,36.04803533967725 140.01475038289468,36.046931598038846 140.01892511542974,36.04731662564531 140.01930608016195,36.04472406906393 140.02235379442638,36.04496792715557 140.0226553903083,36.04297853642261 140.02298873444897,36.042927196833716 140.02356018064899,36.04267049766076 140.0244649709897,36.042003075603894 140.024957050136,36.0412072950871 140.02505229042075,36.04018047094553 140.0250840377812,36.03951302705624 140.02571897780382,36.03883274284998 140.02608406930494,36.0383963304851 140.0263539187247,36.03754917114968 140.0264174125473,36.0367854356575 140.02668726196708,36.0361051278888 140.0269888587473,36.03555959370533 140.02729045552752,36.034866438588615 140.02689361756424,36.03360847472467 140.0257983457558,36.032042411159296 140.02467132658686,36.0309897927389 140.0231633426857,36.03028376062613 140.0215759917309,36.02970609321551 140.02052834051395,36.0289743748871 140.01960767694217,36.028300418202825 140.01906797720432,36.027915297612594 140.01814731363257,36.02753017441317 140.01717902946928,36.027517337182935 140.01592502265515,36.02753017441317 140.01446465934555,36.02759436198598 140.0128931816218,36.02768422391887 140.01190902422744,36.027517337182935 140.0111629688924,36.02688829944123 140.01049628150935,36.02605385379616 140.00987721471782,36.02524507452031 140.0091946541037,36.023935605033586 140.00868670172628,36.023332215251735 140.00775016492344,36.02276733487429 140.00675013339972,36.02158620846998 140.00581359659688,36.020854415452824 140.0050992886223,36.020623321050294 140.00076423735175,36.02034179948122 140.00079756664542,36.02033445245739 139.99955943306236,36.01964758262572 139.9986705168511,36.0190955151651 139.99728952149343,36.018106919059896 139.99646409910474,36.01743928885172 139.9956545499471,36.01704127550906 139.99454340400922,36.01655338635778 139.99387671662618,36.01600129649488 139.99344813220077,36.01529513006449 139.9932735230657,36.014550438558196 139.993098914829,36.014126731805035 139.99274969745724,36.0138314196687 139.9920036421222,36.01333067037929 139.99151156387418,36.01302251494206 139.9910671053194,36.0126758393618 139.9909242435448,36.01214940253868 139.99100361149678,36.0118027231184 139.99127346091657,36.011481721865096 139.99160680415895,36.01108367843745 139.9920671359448,36.01082687548759 139.992368732725,36.010518710262104 139.99273382422618,36.0102105445586 139.99306716746855,36.00983817566598 139.99345141546124,36.009154250255456 139.99350760020562,36.008586478252255 139.99345067911497,36.00820934772142 139.99283424676267,36.00809948581526 139.99229704672783,36.00799873508785 139.99198108628786,36.00780643941302 139.99085064236198,36.00780938298765 139.9903078960633,36.00785086191423 139.99000344313538,36.00724905248802 139.98945479879112,36.00636321526816 139.99393665893516,36.00681848331751 139.99371681778678,36.006111516786234 139.99034630544924,36.005134057139465 139.98923440243473,36.00494749931829 139.98846166945393,36.00472583276897 139.98795980600093,36.00447189161298 139.98784872044553,36.00405378474559 139.98801921207277,36.00379094797313 139.98854345797426,36.00335049264435 139.98936808485902,36.00334328425716 139.99043265794944,36.00344385951241 139.9922953315683,36.00404373603352 139.99150708497746,36.002525664524406 139.9910768624611,36.00136655144892 139.99091872144996,36.000195275819664</coordinates>
</LineString>
</Placemark>
<Placemark>
<description><![CDATA[ 浸水範囲 ]]></description>
<styleUrl>#LineStyle1</styleUrl>
<LineString>
<coordinates>139.99372173108546,36.099166022398656 139.99273681640616,36.09870815803931 139.99060508326474,36.09735635245965 139.99044317948182,36.097160120684514 139.990416195518,36.096942084804084 139.99053762335518,36.09566656278209 139.99063206722852,36.09531769845249 139.99144158614303,36.09530679641724 139.99239951685848,36.09520867803188 139.99252094469563,36.095394012656925 139.99272332442425,36.09553573883998 139.99435585423512,36.096277071632265 139.99470664576472,36.09729094192239 139.99473362972853,36.0974326646843 139.9946391858552,36.09768340432923 139.99372173108546,36.099166022398656</coordinates>
</LineString>
</Placemark>
<Placemark>
<description><![CDATA[ 浸水範囲 ]]></description>
<styleUrl>#LineStyle1</styleUrl>
<LineString>
<coordinates>139.96347296587652,36.15389234825211 139.96363902136318,36.15414213389877 139.96379286169335,36.15431720940255 139.96434116380814,36.15400805591774 139.9650510493766,36.153589188082854 139.9652421722415,36.153501004790265 139.96453228667303,36.15307111126954 139.96409543325544,36.15275144570093 139.9639316137853,36.15169323196724 139.9638770069958,36.15023816485873 139.9638770069958,36.14992951043762 139.96267566211856,36.14999565092842 139.96166544010623,36.15026021088305 139.96125589008335,36.150458631351405 139.9607644307746,36.14984132302982 139.9604640943307,36.149290151660495 139.9602183646763,36.148827164339714 139.9601364553904,36.148408268832625 139.95969960197277,36.14772480347363 139.9594538723184,36.14721771172128 139.9589624130096,36.14688699844726 139.95879859353943,36.146468092578225 139.95923544605873,36.145872800831306 139.95942656892365,36.14507907244165 139.95939511472343,36.14483576943626 139.95808224077462,36.14485446497644 139.95776873177974,36.144915194182516 139.95698204602363,36.14548515650414 139.9558860020781,36.14475885816573 139.95626775520662,36.14414895876139 139.95675923163165,36.14361085616015 139.95784733050462,36.143277859919245 139.95763628334942,36.14299007642575 139.95762455115863,36.142576699407776 139.9574334282937,36.142697838358444 139.9554129842691,36.14311676436196 139.95410242581286,36.146622426388845 139.9548669181708,36.147327948927625 139.9553583774796,36.147746850204456 139.95563141052872,36.148231891222224 139.95587714018313,36.148716929240464 139.95623208341652,36.14906968188314 139.95688736219546,36.14946652689109 139.95728326052097,36.14995155727408 139.95785662911567,36.15031532773017 139.95877129014468,36.150414537957374 139.95923544605873,36.150789329565725 139.95967229857803,36.15127435176798 139.9601364553904,36.151891648084664 139.96031664082247,36.152115977215324 139.96179301481055,36.15134970780615 139.96244605847133,36.152434678273316 139.96281800652855,36.15298685981456 139.96319801714014,36.15351183439743 139.96347296587652,36.15389234825211</coordinates>
</LineString>
</Placemark>
<Placemark>
<description><![CDATA[ 浸水範囲 ]]></description>
<styleUrl>#LineStyle1</styleUrl>
<LineString>
<coordinates>139.96440028140404,36.13391776771621 139.96465662906033,36.13325306759743 139.96467012104222,36.13250118690651 139.96133760151093,36.13184737175457 139.9607304623251,36.13328575789885 139.96440028140404,36.13391776771621</coordinates>
</LineString>
</Placemark>
<Placemark>
<description><![CDATA[ 越水箇所 ]]></description>
<styleUrl>#LineStyle2</styleUrl>
<LineString>
<coordinates>139.95482772024027,36.13347917523726 139.95455788060212,36.13389325018924 139.95428804096397,36.134503461925554 139.95409915321724,36.13496111761386</coordinates>
</LineString>
</Placemark>
<Placemark>
<description><![CDATA[ 浸水範囲 ]]></description>
<styleUrl>#LineStyle1</styleUrl>
<LineString>
<coordinates>139.9670809128939,36.10022946693282 139.96784963745654,36.10016521291041 139.96858682641974,36.100518184517554 139.96896907304784,36.10082703255649 139.9695697450373,36.101157940651945 139.97000659845492,36.10140060550928 139.9706891806286,36.10168738968966 139.97118063993742,36.102040353732676 139.97169940264092,36.10221683588536 139.97224546873923,36.1023933169158 139.97284614162697,36.10252567724702 139.97325569075153,36.10256979754982 139.9735560271954,36.10193005291175 139.97374715006032,36.101422665253864 139.97363793737966,36.10089321443223 139.97369254416915,36.100231395343634 139.9738017568498,36.099525448692766 139.97396557721828,36.09873125158274 139.97421130687266,36.0979811693249 139.97451164241826,36.09747375616624 139.9739109704288,36.09725314082212 139.9736652407744,36.09709870993046 139.97382906024455,36.096613352894146 139.9739928797147,36.09623830255187 139.9735014204059,36.09621624062588 139.97358333059017,36.095620568460774 139.97371984756387,36.095201388964696 139.97426591276385,36.09493664267675 139.9749757992306,36.09478220723268 139.97565838140432,36.09469395785645 139.97617714410785,36.094517459532575 139.97642287376223,36.09356877397821 139.97655939073596,36.09310545794556 139.97726927630438,36.09359083664743 139.97786994919215,36.0943409608123 139.9783341051062,36.09482633188364 139.98139207453792,36.095510257901815 139.9810098288081,36.09650304445465 139.9803272457361,36.09776055540537 139.98092791862388,36.09820178262503 139.9818016245608,36.099062168504695 139.98240229655025,36.09985636226997 139.98275723978364,36.100628487320584 139.98294836264853,36.101510907073504 139.98387667537494,36.101510907073504 139.98414970842407,36.101709450079525 139.98472307701877,36.10168738968966 139.98453195415388,36.10327571684738 139.98445004396964,36.1041360471658 139.98548756937672,36.10422428521208 139.98548756937672,36.10528313911742 139.98791756342422,36.10541549457992 139.98767183376984,36.10579050184329 139.986716218547,36.10618756572311 139.98551487277146,36.10684933463803 139.9852418397223,36.10733462771845 139.98513262704162,36.10834932339322 139.98499611006793,36.10938606346862 139.98496880667318,36.10954047020887 139.98486414460334,36.11008469727678 139.98362032771868,36.11101093266782 139.9834944287468,36.11194476716438 139.98343982195732,36.112805002538295 139.98333060927666,36.11415048018389 139.9831667889082,36.114415161728346 139.9813101643537,36.11434899124445 139.98010881947644,36.11423870770639 139.97918050764838,36.11423870770639 139.9780819085256,36.115550817727105 139.97772568846685,36.11748021466037 139.97470380395038,36.11898212904137 139.97327046045714,36.11915592842927 139.97300996109712,36.11981887750364 139.97270962465325,36.12083341115935 139.97246389499887,36.12171560393439 139.97238198571293,36.12184793170542 139.97361063398492,36.12191409587011 139.9746754627867,36.12186998643318 139.97568568479906,36.12175971345806 139.97688702967625,36.12164943960243 139.97710545683424,36.12162738481272 139.97694163646577,36.1224213511623 139.9767232102061,36.123590230304636 139.9761498407131,36.12354612180943 139.97554916872363,36.12341379690078 139.97483928225688,36.12330352609412 139.97445703652707,36.12317120005092 139.97388366703404,36.123281471769076 139.97300996109712,36.12352406755255 139.97234182919814,36.12365639300096 139.97191751036797,36.12486762057101 139.97089571206098,36.124661075428634 139.96999423506898,36.127560734677644 139.96977228461645,36.12861319607411 139.96939746347758,36.1313284102333 139.96739905300055,36.13118333147107 139.96723770860336,36.13228547452151 139.96929216164753,36.13228779597803 139.96921639895854,36.13323640040106 139.97105825470572,36.133469874577514 139.97345160418206,36.13371940306501 139.97482227743305,36.13396951085393 139.9747156193015,36.13458359105341 139.97464815939196,36.135101660260354 139.97492119244112,36.1351678132536 139.97543995514468,36.13507960997572 139.97604062803242,36.13523396619107 139.97642287376223,36.13587343953494 139.9765320873412,36.13642470517611 139.9765866941307,36.13704211835757 139.97664130002187,36.13763747638954 139.9766686034166,36.13807847958795 139.9765866941307,36.13851948030768 139.97636826697274,36.138784079694865 139.97601332463768,36.13907072808446 139.97590778375115,36.139197288346885 139.97607711212493,36.13960901242067 139.97668975931612,36.14087189346057 139.97348641164382,36.14186236560897 139.97335891641558,36.1416429060179 139.97347172231264,36.141020823239415 139.9707028606429,36.14161120379723</coordinates>
</LineString>
</Placemark>
<Placemark>
<description><![CDATA[ 破堤箇所 ]]></description>
<styleUrl>#LineStyle3</styleUrl>
<LineString>
<coordinates>139.9664068946412,36.09907069977454 139.9668394154442,36.09992254496333 139.96705784170385,36.100231395343634 139.9670809128939,36.10022946693282</coordinates>
</LineString>
</Placemark>
<Placemark>
<description><![CDATA[ 現地調査結果 ]]></description>
<styleUrl>#LineStyle4</styleUrl>
<LineString>
<coordinates>139.99091872144996,36.000195275819664 139.9908976811162,35.9995365567447 139.99094060787604,35.99822268931954 139.99087393963677,35.99748019895072 139.9907385195058,35.996830283827435 139.99036317770606,35.99592687482685 139.9896386623481,35.995063770015946 139.98889964002777,35.99400600240174 139.98823566964631,35.992737042845384 139.98585670935486,35.993198490647515 139.9853575060243,35.99347139497471 139.98288689095,35.993143532628544 139.98212530423237,35.99304835903376 139.98156653766523,35.99321860777317 139.9814038806349,35.99359733198138 139.98150114382423,35.994636925028814 139.98136230026458,35.99528307885693 139.98104133462334,35.995806757609465 139.98049627782248,35.99648378184004 139.97981776385765,35.99715224770267</coordinates>
</LineString>
</Placemark>
<Placemark>
<description><![CDATA[ 浸水範囲 ]]></description>
<styleUrl>#LineStyle1</styleUrl>
<LineString>
<coordinates>139.97981776385765,35.99715224770267 139.97979850507164,35.99717122128565 139.97895310227483,35.99812245799276 139.97768645632405,35.99892424516927 139.97728858742713,35.99962390456695 139.97668043318265,36.00007011765904 139.97592240430728,36.001063126808 139.97520684252106,36.00215541316681 139.97453963860207,36.0027915487604 139.97360154964989,36.00340267718743 139.97453930725078,36.00338886482163 139.97618835929342,36.00310615282613 139.97688093742298,36.00409991203346 139.97728965674452,36.005122027739525 139.97830930195008,36.00673256597508 139.97866901217088,36.007458390744866 139.97898997776022,36.008742482654945 139.97913346294948,36.00941286726627 139.9805462168936,36.009324570716956 139.98126686242264,36.00940678521055 139.9822160743344,36.010830748024304 139.98283884111493,36.01182471954763 139.9834475717999,36.01180354552202 139.98373354320748,36.01228422182073 139.98417800176225,36.012836337720465 139.98489230973684,36.01349116667798 139.98513041269447,36.013735121472436 139.98484468914532,36.01414599092204 139.9847335747312,36.01465957508549 139.98463833354813,36.015628954957315 139.98506691797354,36.01598845738629 139.9856859856634,36.01643783293487 139.986320925686,36.01687436623037 139.9867018895199,36.01702843656989 139.98743207162386,36.01746496732069 139.98797177046342,36.018145436070625 139.9879241498719,36.018530604415936 139.9879082766408,36.01877454361227 139.98754318603798,36.018864415604455 139.98719396866625,36.019288097614606 139.98703523366058,36.01986584141278 139.98698761306906,36.020417903476854 139.98701936042954,36.02122673230256 139.98708285425212,36.021611885587696 139.9871622213058,36.021611885587696 139.98763842722104,36.02156053207043 139.9882416207815,36.021432147767555 139.9887584961246,36.02140228708741 139.98863845784646,36.021412912227674 139.98844797637867,36.02281226860639 139.98847972284082,36.023345053163894 139.9883051146041,36.02420520377086 139.988114632238,36.02487277665754 139.98794002400126,36.0249498040461 139.98719396866625,36.02500115535447 139.9871463480747,36.025874125382074 139.98733683044082,36.0264133079413 139.98784478281823,36.02696532485928 139.98838448165776,36.027401799837165 139.98878131962104,36.02783185453357 139.9888130669815,36.028396697874584 139.98846384960973,36.0289487008952 139.98784478281823,36.02944935094581 139.98681300483236,36.03043780474725 139.9862574318634,36.03111816146803 139.98597170831425,36.03137489829869 139.98538438888318,36.031760002702164 139.9847018273707,36.032042411159296 139.98387640498203,36.032324817877445 139.98327321142156,36.03281261010358 139.98293986817922,36.033274726000485 139.98284462699615,36.03380102170165 139.98265414463003,36.0344941861949 139.982558903447,36.034827929751785 139.9828128796357,36.035058982490305 139.9837494173368,36.03517450787895 139.98528914770012,36.03544406815512 139.9861463174493,36.0354697407564 139.98659077510578,36.03563661064468 139.9871463480747,36.03568795498691 139.98758369893642,36.03569355725681 139.98763937751676,36.037286418946124 139.9878654194459,36.03884289725084 139.98838289771828,36.04039978331835 139.9890574968137,36.04238148945735 139.98940670350552,36.04372015551067 139.98946670672692,36.04478169183693 139.98919746907703,36.0457192984617 139.98873827558225,36.04661380244044 139.98742996533977,36.04814259951452 139.98594502359217,36.0495119330612 139.9842740761181,36.050827583160554 139.982427498429,36.05206017537002 139.98168397829753,36.05292209619163 139.98163668617892,36.05357822462993 139.98164936038958,36.055216990974614 139.98157474605262,36.05632574013121 139.98173348105828,36.058263463252935 139.98171760782722,36.05894357956283 139.98171760782722,36.05939271006755 139.98171760782722,36.05985466996981 139.98173348105828,36.06014980957844 139.98208269843005,36.06014980957844 139.98241604257075,36.060239634362276 139.98274938581312,36.06031662716 139.98305098259334,36.06049627697046 139.98343194642723,36.06050910882472 139.98387640498203,36.06059893319839 139.9844002305905,36.06082991031088 139.9847335747312,36.06090690253103 139.98482881591423,36.061394516965564 139.98489230973684,36.061805137838576 139.9849716776888,36.06208102273831 139.98508279210296,36.062748274565365 139.98508279210296,36.06304340332035 139.9846700809086,36.063081898356884 139.98335257937356,36.063325699575465 139.98247953639333,36.06345401558819 139.98189221606393,36.06371064698584 139.98119378221875,36.06383896309692 139.98105092044415,36.063980109560774 139.98157474605262,36.06437788571876 139.98197158401592,36.065494213017715 139.98240016844133,36.06675166742026 139.98251128285548,36.067418879635746 139.9822414334357,36.06924085362106 139.98213031902156,36.07107561626305 139.98213031902156,36.07220467919093 139.981987457247,36.07289750554962 139.98171760782722,36.07396239332955 139.9817811016498,36.0758098751916 139.981770357799,36.07583964771774 139.9816514558897,36.07583947854744 139.9815581523727,36.07642768728652 139.98133664309498,36.077041504928836 139.98087228236508,36.078349387728615 139.98064123387738,36.078752344021936 139.98036502797865,36.07906486778065 139.97982866009218,36.0794405634607 139.97968956315694,36.07963841878238 139.97919415934575,36.079966006003616 139.97881191271762,36.08056179680888 139.97851157627375,36.081444441878176 139.97777438731057,36.08290078428983 139.9764365254596,36.08431296992301 139.97534439326304,36.085217637174566 139.9743746471964,36.08580196928208 139.9736721862189,36.08617681128867 139.97279688402563,36.08650520041822 139.9719039381467,36.08676507112406 139.97082370167573,36.08695823274563 139.96969588320079,36.08710881240012 139.96843442352878,36.08716068307199 139.96796835102913,36.087405971925584 139.96722086349504,36.088181638587685 139.96678975893582,36.088825881732106 139.96729534819008,36.08895387873112 139.96789266795142,36.089070584942924 139.96823188408467,36.089255417698915 139.968791600982,36.08972978830319 139.9690919374259,36.0902041560446 139.96939227386977,36.09077780581104 139.97011581113557,36.09107566117403 139.97088030349352,36.09143970452024 139.97082569760232,36.09194715591429 139.97083934929972,36.09234429048089 139.97053901285582,36.09247666773989 139.96995199166543,36.09248769922856 139.96950148744875,36.09250976220127 139.969242106097,36.09250976220127 139.96883255607412,36.09289586176931 139.96853030394294,36.09301733574415 139.97001865313274,36.09527215556676 139.96996931605526,36.09584589721729 139.96982537449065,36.0964095072115 139.96943235104354,36.09697782241851 139.9687386717216,36.097318100121996 139.96780485009157,36.09771223955207 139.96741470062452,36.09794794811991 139.96700323491436,36.09835621134884 139.96675750525998,36.098819496425094 139.9664025629249,36.099062168504695 139.9664068946412,36.09907069977454</coordinates>
</LineString>
</Placemark>
<Placemark>
<description><![CDATA[ 浸水範囲 ]]></description>
<styleUrl>#LineStyle1</styleUrl>
<LineString>
<coordinates>139.97981776385765,35.99715224770267 139.98088073730452,35.99727187399912 139.98198707982098,35.99729370523659 139.9822299354953,35.997315536468 139.98258072702492,35.99681341661645 139.98293151855455,35.99626763054335 139.98325532612031,35.99698806736219 139.9834172299032,35.99742469253447 139.9835251657585,35.99766483534889 139.98295850251833,35.997730328716834 139.98258072702492,35.997970470600634 139.98239183927822,35.99831976658086 139.98241882324203,35.99855990666988 139.9832013581927,35.99880004602769 139.98382198936045,35.99917116905148 139.98436166863678,35.999433137193265 139.98503626773217,35.99978242669528 139.98538705926177,35.9999134098597 139.98530610737032,35.9996732738921 139.9849553158407,35.999323983906606 139.98468547620257,35.999018353900254 139.98444262052823,35.99875638438065 139.98436166863678,35.9984070903342 139.98476642809402,35.99821061175323 139.98525213944268,35.99799230164472 139.985791818719,35.997904977432114 139.98654736970587,35.9978394842092 139.98724895276504,35.99788314636385 139.98808545564336,35.99807962576064 139.98857116699205,35.99855990666988 139.98897592644929,35.99888736924923 139.9896235415809,35.9993676452394 139.99029814067626,35.999891579347405 139.99091872144993,36.000195275819664</coordinates>
</LineString>
</Placemark>
</Document>
</kml>