<?xml version="1.0" encoding="UTF-8"?>
<kml xmlns="http://www.opengis.net/kml/2.2">
<Document>
 <name>DENKOKU-20150916</name>
<Style id="L000001">
 <LineStyle>
  <color>FFFF0000</color>
  <width>5</width>
 </LineStyle>
</Style>
<Placemark>
 <name></name>
 <description><![CDATA[浸水範囲]]></description>
 <styleUrl>#L000001</styleUrl>
 <LineString>
  <coordinates>139.993162876,36.100553642 139.99286116,36.100982909 139.992793156,36.101306478 139.992694928,36.101794882 139.992944276,36.102142868 139.993170955,36.102100133 139.993662095,36.101605626 139.993941667,36.101202692 139.994118215,36.100909246 139.993332476,36.100525031 139.993185056,36.100555375 139.993162876,36.100553642</coordinates>
 </LineString>
</Placemark>
<Placemark>
 <name></name>
 <description><![CDATA[浸水範囲]]></description>
 <styleUrl>#L000001</styleUrl>
 <LineString>
  <coordinates>139.97271853,36.094238783 139.973336467,36.093168003 139.973970794,36.093373873 139.974453811,36.092346436 139.972779676,36.091848028 139.972118833,36.093010974 139.971795754,36.093948439 139.97271853,36.094238783</coordinates>
 </LineString>
</Placemark>
<Placemark>
 <name></name>
 <description><![CDATA[浸水範囲]]></description>
 <styleUrl>#L000001</styleUrl>
 <LineString>
  <coordinates>139.978365169,36.090208636 139.978716336,36.089657148 139.979902627,36.090145624 139.980469327,36.088961064 139.979298147,36.08847258 139.978912792,36.0889977 139.978174309,36.088725038 139.977766573,36.090010059 139.978365169,36.090208636</coordinates>
 </LineString>
</Placemark>
<Placemark>
 <name></name>
 <description><![CDATA[浸水範囲]]></description>
 <styleUrl>#L000001</styleUrl>
 <LineString>
  <coordinates>139.995555048,36.101451262 139.994077675,36.10324176 139.993246515,36.104413895 139.993533643,36.104841232 139.993897194,36.104988096 139.996151784,36.10172745 139.995555048,36.101451262</coordinates>
 </LineString>
</Placemark>
<Placemark>
 <name></name>
 <description><![CDATA[浸水範囲]]></description>
 <styleUrl>#L000001</styleUrl>
 <LineString>
  <coordinates>139.983689343,36.09930374 139.983952641,36.098430939 139.984504228,36.098449255 139.984871597,36.096104217 139.981894435,36.095870427 139.981655618,36.097478508 139.982645454,36.097722722 139.982480605,36.099187911 139.983689343,36.09930374</coordinates>
 </LineString>
</Placemark>
<Placemark>
 <name></name>
 <description><![CDATA[浸水範囲]]></description>
 <styleUrl>#L000001</styleUrl>
 <LineString>
  <coordinates>139.991045832,36.083471555 139.991703203,36.083666961 139.991960107,36.082738777 139.991302736,36.082445664 139.991045832,36.083471555</coordinates>
 </LineString>
</Placemark>
<Placemark>
 <name></name>
 <description><![CDATA[浸水範囲]]></description>
 <styleUrl>#L000001</styleUrl>
 <LineString>
  <coordinates>139.990320456,36.087373481 139.991038276,36.087544453 139.991468967,36.085761441 139.990713368,36.085456127 139.990320456,36.087373481</coordinates>
 </LineString>
</Placemark>
<Placemark>
 <name></name>
 <description><![CDATA[浸水範囲]]></description>
 <styleUrl>#L000001</styleUrl>
 <LineString>
  <coordinates>139.982738015,36.085602678 139.983108258,36.084674517 139.981612171,36.084308135 139.979806288,36.087654363 139.981022803,36.088032942 139.981274931,36.087435088 139.982487018,36.087816334 139.981823739,36.089109135 139.983002474,36.089475495 139.98425677,36.086947576 139.984098094,36.086251468 139.983342494,36.086005692 139.983380274,36.085767547 139.982738015,36.085602678</coordinates>
 </LineString>
</Placemark>
<Placemark>
 <name></name>
 <description><![CDATA[浸水範囲]]></description>
 <styleUrl>#L000001</styleUrl>
 <LineString>
  <coordinates>139.98460172,36.086825527 139.985100765,36.088111311 139.986038096,36.086401071 139.986038096,36.086401071 139.986038096,36.086401071 139.988147525,36.083594664 139.989158163,36.08227148 139.990322547,36.077209935 139.990396016,36.076607603 139.989413737,36.07635111 139.988673249,36.07808548 139.987585186,36.077877846 139.986829586,36.079551115 139.985597299,36.079457161 139.985387203,36.080249695 139.985051561,36.081349688 139.985741523,36.081459453 139.985741523,36.081825849 139.985590403,36.082381546 139.985439283,36.082735724 139.985023703,36.082955558 139.984688847,36.083023714 139.984430558,36.08378909 139.98425719,36.084527347 139.984436225,36.084981361 139.98482158,36.08529889 139.98493492,36.085530929 139.984965144,36.085824031 139.98460172,36.086825527</coordinates>
 </LineString>
</Placemark>
<Placemark>
 <name></name>
 <description><![CDATA[浸水範囲]]></description>
 <styleUrl>#L000001</styleUrl>
 <LineString>
  <coordinates>139.988043384,36.085143611 139.987072125,36.086733934 139.987072125,36.086733934 139.988750698,36.087274256 139.989211614,36.086492664 139.987964874,36.086053015 139.988335118,36.085308049 139.988043384,36.085143611</coordinates>
 </LineString>
</Placemark>
<Placemark>
 <name></name>
 <description><![CDATA[浸水範囲]]></description>
 <styleUrl>#L000001</styleUrl>
 <LineString>
  <coordinates>139.991211536,36.080334442 139.990535513,36.080260572 139.990105446,36.082188253 139.989071828,36.0835143 139.990454575,36.083447129 139.991043943,36.081117483 139.991211536,36.080334442</coordinates>
 </LineString>
</Placemark>
<Placemark>
 <name></name>
 <description><![CDATA[浸水範囲]]></description>
 <styleUrl>#L000001</styleUrl>
 <LineString>
  <coordinates>139.991931631,36.077059545 139.991069104,36.076950856 139.991017257,36.077068935 139.990894684,36.078430823 139.990881288,36.078573337 139.991566087,36.078677828 139.991648422,36.078293113 139.991931631,36.077059545</coordinates>
 </LineString>
</Placemark>
<Placemark>
 <name></name>
 <description><![CDATA[浸水範囲]]></description>
 <styleUrl>#L000001</styleUrl>
 <LineString>
  <coordinates>139.987482302,36.075052219 139.988636623,36.075080956 139.989061867,36.073584167 139.987981591,36.073328636 139.987482302,36.075052219</coordinates>
 </LineString>
</Placemark>
<Placemark>
 <name></name>
 <description><![CDATA[浸水範囲]]></description>
 <styleUrl>#L000001</styleUrl>
 <LineString>
  <coordinates>139.985447056,36.069744026 139.985051655,36.069629569 139.985304875,36.068790191 139.984813205,36.068690163 139.984159739,36.070492165 139.984681278,36.070642643 139.98455273,36.07156473 139.984999753,36.071685073 139.984852707,36.072667637 139.984182309,36.072562688 139.984193922,36.073336206 139.986478404,36.073869207 139.986171436,36.074774801 139.986984901,36.07493607 139.98783047,36.072210431 139.986657252,36.072015462 139.986879033,36.071183934 139.985556671,36.070868237 139.985867674,36.069854815 139.985442388,36.069762891 139.985447056,36.069744026</coordinates>
 </LineString>
</Placemark>
<Placemark>
 <name></name>
 <description><![CDATA[浸水範囲]]></description>
 <styleUrl>#L000001</styleUrl>
 <LineString>
  <coordinates>139.992388214,36.07057221 139.992813729,36.069256768 139.992012887,36.069076469 139.991568259,36.070150117 139.990450881,36.069939997 139.989877411,36.071769483 139.991013521,36.072024924 139.990809945,36.072629732 139.99155491,36.072779886 139.992388214,36.07057221</coordinates>
 </LineString>
</Placemark>
<Placemark>
 <name></name>
 <description><![CDATA[浸水範囲]]></description>
 <styleUrl>#L000001</styleUrl>
 <LineString>
  <coordinates>139.998250877,36.063079402 139.998106326,36.063068177 139.996113632,36.06260238 139.996316892,36.061876654 139.995720964,36.061741441 139.995479044,36.061771996 139.990860004,36.060387709 139.991102105,36.058519049 139.99093711,36.058500438 139.989955721,36.058307295 139.989610334,36.060172817 139.990632932,36.06039246 139.990408445,36.061439149 139.9934082,36.062104846 139.992896402,36.063433542 139.995539198,36.063872696 139.995373404,36.064719278 139.992762826,36.063780316 139.992610084,36.064176841 139.992578209,36.064169154 139.992487397,36.06436042 139.991140554,36.064043582 139.991067571,36.064226469 139.991044234,36.064224747 139.990794131,36.064695153 139.99030994,36.064589994 139.98989171,36.064453431 139.98989342,36.064803392 139.988462227,36.064542832 139.988133564,36.065378728 139.990368246,36.065829227 139.990294207,36.066040913 139.988040756,36.065514869 139.987725928,36.066346519 139.991487866,36.067187972 139.990783798,36.068851387 139.992012887,36.069076469 139.992605543,36.067564331 139.993294342,36.067578527 139.993850131,36.066262907 139.993086609,36.066112792 139.992845498,36.066551405 139.991672141,36.06625069 139.99150521,36.066553181 139.990536713,36.066297526 139.991018111,36.06499713 139.993439161,36.065553121 139.993698696,36.065023801 139.996938883,36.06560885 139.997203356,36.065417337 139.998250877,36.063079402</coordinates>
 </LineString>
</Placemark>
<Placemark>
 <name></name>
 <description><![CDATA[浸水範囲]]></description>
 <styleUrl>#L000001</styleUrl>
 <LineString>
  <coordinates>139.999261155,36.053005652 139.996464485,36.052218895 139.993093124,36.060127823 139.995793339,36.060728736 139.999164803,36.052985982 139.999261155,36.053005652</coordinates>
 </LineString>
</Placemark>
<Placemark>
 <name></name>
 <description><![CDATA[浸水範囲]]></description>
 <styleUrl>#L000001</styleUrl>
 <LineString>
  <coordinates>140.007666338,36.042826928 140.00667606,36.042840104 140.006681841,36.044074074 140.006678386,36.044131143 140.007650919,36.044117392 140.007666338,36.042826928</coordinates>
 </LineString>
</Placemark>
<Placemark>
 <name></name>
 <description><![CDATA[浸水範囲]]></description>
 <styleUrl>#L000001</styleUrl>
 <LineString>
  <coordinates>139.994768901,36.049386744 139.994933256,36.049742344 139.996944387,36.050283705 139.998333325,36.046971929 139.99707633,36.046762096 139.995917592,36.046429738 139.995307563,36.047680016 139.994785718,36.048585911 139.994893157,36.048920965 139.994768901,36.049386744</coordinates>
 </LineString>
</Placemark>
<Placemark>
 <name></name>
 <description><![CDATA[浸水範囲]]></description>
 <styleUrl>#L000001</styleUrl>
 <LineString>
  <coordinates>140.02266962,36.039073025 140.019883375,36.038673207 140.019737997,36.040154565 140.02089207,36.040288788 140.020838954,36.041362511 140.021149627,36.041349182 140.022171893,36.041172595 140.02265466,36.040813744 140.022844001,36.040673003 140.023299883,36.040020567 140.022650082,36.039768727 140.02266962,36.039073025</coordinates>
 </LineString>
</Placemark>
<Placemark>
 <name></name>
 <description><![CDATA[浸水範囲]]></description>
 <styleUrl>#L000001</styleUrl>
 <LineString>
  <coordinates>139.998671049,36.043597436 139.999619636,36.04358471 139.999454106,36.045104674 140.000562877,36.045215665 140.000433533,36.045654139 140.000174266,36.046259044 140.001514467,36.04637808 140.001444922,36.047371799 140.002741065,36.047602998 140.0030352,36.046066795 140.004142845,36.046178962 140.004265863,36.045321662 140.004274589,36.044406809 140.004255726,36.043740481 140.004004895,36.04314362 140.003765479,36.043109431 140.003429241,36.045388155 140.003008772,36.045352108 140.00343641,36.042759324 140.003865915,36.042787124 140.004456522,36.042822226 140.004755159,36.043229866 140.004943059,36.044060844 140.004944862,36.044892088 140.004960373,36.045164668 140.005848008,36.045147723 140.006040817,36.045162782 140.005998838,36.043974793 140.005914422,36.043310845 140.005922096,36.042454531 140.005927629,36.042454394 140.005952922,36.042056845 140.007143886,36.04204001 140.007207424,36.041314466 140.006714265,36.041307623 140.006750124,36.040687915 140.007243329,36.040717427 140.007225983,36.041291769 140.00764421,36.041285096 140.007999726,36.041318949 140.008835608,36.041259197 140.008889892,36.040563892 140.007754844,36.040610889 140.007806135,36.04017224 140.010005587,36.040184414 140.010049475,36.039005489 140.010896167,36.039004238 140.010997913,36.037244224 140.012120406,36.037264355 140.012137272,36.036493537 140.013235145,36.036491895 140.01319652,36.035872295 140.015597145,36.035959352 140.015669382,36.035007085 140.016785841,36.035005382 140.016765692,36.034340415 140.016773051,36.033501598 140.014549356,36.033452082 140.014584631,36.032605667 140.01572895,36.032596375 140.015764213,36.031749959 140.016880662,36.031763369 140.016906275,36.030773388 140.019111237,36.03080022 140.019038956,36.031714705 140.018015524,36.031693615 140.017881678,36.034352865 140.017956608,36.034353701 140.017847536,36.035457161 140.016693819,36.035443818 140.016659406,36.036652958 140.01786907,36.036711557 140.017886832,36.036348803 140.01892895,36.036377422 140.018893825,36.037269178 140.019917276,36.03726759 140.019988891,36.036073505 140.022184841,36.036160748 140.022223934,36.036946593 140.024262835,36.03549497 140.024283251,36.034381577 140.025108757,36.033337421 140.024573098,36.032569886 140.023621498,36.031787928 140.021196453,36.030186751 140.020582518,36.030099865 140.020851784,36.029642702 140.019686403,36.029017425 140.019082239,36.028632908 140.018582904,36.028338286 140.018949,36.02786685 140.018585979,36.027699385 140.018254603,36.028152499 140.017929904,36.02810761 140.017711439,36.028958519 140.018670156,36.029168632 140.018643362,36.029644752 140.016940841,36.029632258 140.016847531,36.029562791 140.016833464,36.029647247 140.013233437,36.029830203 140.012240117,36.029856635 140.011980639,36.02986354 140.011326687,36.029724124 140.010483657,36.029301914 140.009579583,36.028555122 140.008871275,36.027981843 140.007846744,36.027439248 140.007064036,36.026866067 140.006704357,36.0263852 140.004985333,36.024723393 140.001930392,36.024815123 140.001285759,36.025820586 140.001146169,36.02629262 140.000870858,36.027187459 140.001684817,36.027285311 140.001769009,36.027289831 140.00293949,36.025300154 140.004242749,36.025706372 140.004409545,36.025403861 140.004911973,36.025440928 140.005037598,36.027601996 140.004516583,36.027580071 140.004063086,36.028668898 140.004073693,36.029273428 140.002612013,36.028769194 140.002287615,36.029336412 140.000549037,36.028979641 140.000441598,36.028607264 140.000410901,36.027999044 140.000362995,36.02799365 139.999326494,36.028048333 139.999505093,36.028924675 140.000565968,36.029074337 140.00059399,36.029127195 140.00105143,36.029874681 139.997751092,36.029871784 139.997810004,36.032478712 139.996637851,36.032525655 139.996643591,36.035306551 139.996666246,36.035402281 139.997820861,36.035157741 139.997820861,36.036001723 139.99831201,36.036312008 139.9993557,36.036299596 139.999359106,36.036497205 139.999374008,36.037361781 139.99936839,36.037361527 139.999386863,36.039081183 139.998065744,36.039128346 139.998124089,36.040337354 139.996838565,36.040347145 139.996838565,36.040435583 139.997222274,36.043491667 139.997647756,36.04351747 139.998088706,36.043549627 139.998671049,36.043597436</coordinates>
 </LineString>
</Placemark>
<Placemark>
 <name></name>
 <description><![CDATA[浸水範囲]]></description>
 <styleUrl>#L000001</styleUrl>
 <LineString>
  <coordinates>140.006229064,36.036664859 140.006407368,36.034238951 140.005699545,36.03421048 140.005438622,36.034086363 140.005384903,36.03330442 140.00616767,36.033360273 140.00631348,36.032174932 140.006374874,36.030759947 140.007103922,36.030809596 140.007065551,36.033572826 140.007034854,36.035088604 140.006973461,36.036664859 140.006229064,36.036664859</coordinates>
 </LineString>
</Placemark>
</Document>
</kml>
