<?xml version="1.0" encoding="UTF-8"?>
<kml xmlns="http://www.opengis.net/kml/2.2">
<Document>
<Style id="LineStyle1">
  <LineStyle>
  <color>ffFF0000</color>
  <width>5</width>
  </LineStyle>
</Style>
<Style id="LineStyle2">
  <LineStyle>
  <color>ffFFC057</color>
  <width>5</width>
  </LineStyle>
</Style>
<Placemark>
<name>浸水範囲</name>
<styleUrl>#LineStyle1</styleUrl>
<LineString>
<coordinates>139.9791761770757,36.003849407350714 139.97902600892203,36.00303215614436 139.97909426717368,36.0021928082507 139.9789577506704,36.0021928082507 139.97845263960807,36.00232533745947 139.97849359455904,36.00283336402961 139.97753797903576,36.003010068156364 139.97779736039206,36.004103416135315 139.9791761770757,36.003849407350714</coordinates>
</LineString>
</Placemark>
<Placemark>
<name>浸水範囲</name>
<styleUrl>#LineStyle1</styleUrl>
<LineString>
<coordinates>139.98014544424933,36.008421440275306 139.97961302988634,36.006477806502176 139.97796118019608,36.005815193127575 139.97841168465706,36.00657719802807 139.97858915611138,36.007162501138986 139.9788485374677,36.00754901967907 139.97878027921604,36.0079686662342 139.97902600892203,36.00867543433056 139.98014544424933,36.008421440275306</coordinates>
</LineString>
</Placemark>
<Placemark>
<name>浸水範囲</name>
<styleUrl>#LineStyle1</styleUrl>
<LineString>
<coordinates>139.98485526361418,36.01107177274389 139.98467779215983,36.01081778640938 139.98459588225785,36.01042024093858 139.9864934616541,36.01017729549725 139.98664362980776,36.01067422855398 139.98859581580535,36.01053067043712 139.9880634014424,36.00723980499859 139.98825452454705,36.00697476287864 139.9876538519324,36.00659928501681 139.98758559368073,36.00627902307452 139.98780402008606,36.00547284070218 139.9867801463111,36.004732912639916 139.9862340802978,36.00580414952416 139.98521020652282,36.0054286660874 139.98430919760085,36.00520779264224 139.9833399304272,36.004799175137514 139.98324436887486,36.00472186888491 139.98344914362988,36.00413654765559 139.98362661508423,36.00393775832513 139.9826573479106,36.00375001238617 139.98142869938061,36.0038714951036 139.98144235103095,36.004534124812984 139.9821385851979,36.00617963117275 139.9820839785966,36.00653302403204 139.9822477984006,36.00685328494255 139.9827938644139,36.00785823314678 139.9829576842179,36.00845456998109 139.98284847101522,36.008874211716055 139.98293038091722,36.00972453154053 139.9833808853782,36.01014416651542 139.9842545909995,36.011138029913965 139.98485526361418,36.01107177274389</coordinates>
</LineString>
</Placemark>
<Placemark>
<name>浸水範囲</name>
<styleUrl>#LineStyle1</styleUrl>
<LineString>
<coordinates>139.98579722748713,36.00335243127506 139.98673919136007,36.00320885982562 139.98833643444905,36.00325303568406 139.99002923909032,36.0034186949328 139.99108041616594,36.00375001238617 139.99204968333956,36.00408132844739 139.99215889654224,36.003937758325115 139.99195412178724,36.003264079644794 139.99154457227726,36.00242473421986 139.99118962936862,36.00140867254122 139.99095755131293,36.00042573085 139.9908892930613,36.0001937990015 139.99004289074065,35.999972910892566 139.98944221812602,35.99949799936327 139.989114578518,35.99886846106735 139.988868848812,35.99850398923068 139.9882408728967,35.99810638166964 139.98772211018405,35.99786339828441 139.98736716727538,35.99778608523212 139.98672553970974,35.99780817468646 139.9857426208858,35.9979186218205 139.98473239876117,35.99829414104549 139.98422728769884,35.99857025696264 139.98510099332015,35.99929919833904 139.98511464497048,35.99948695487507 139.98542863292812,35.99982933328999 139.9853740263268,35.99993977762286 139.98500543176783,35.99986246660609 139.98452762400615,35.9996415775691 139.98410442284586,35.999177708577534 139.98331262712654,35.99875801523411 139.98256178635825,35.99857025696264 139.98223414675024,35.99841563216814 139.98205667529595,35.998040113547916 139.98239796655423,35.99786339828442 139.98283481936488,35.99770877210404 139.98339453702854,35.9976756378831 139.98357200848287,35.99766459313968 139.98359931178354,35.99750996656953 139.98314880732255,35.996538021186936 139.9830532457702,35.99614040371453 139.98302594246957,35.995941594226636 139.98264369626025,35.995775919270585 139.9817563389886,35.995433523258605 139.9813877444296,35.995278892322126 139.98088263336732,35.99572069418932 139.9804321289063,35.99629503293264 139.98039117395533,35.997012950540785 139.980377522305,35.99784130902498 139.98093723996865,35.998029068854 139.9812102729753,35.998261007070475 139.980295612403,35.99959739970293 139.9812512279263,36.00035946467718 139.98220684344957,36.00103316817283 139.98313515567222,36.00160746824764 139.9839132997412,36.001916705017045 139.98489621856515,36.0021928082507 139.98552419448046,36.00229220517815 139.98575627253615,36.002336381550144 139.98563340768314,36.002899628123544 139.98579722748713,36.00335243127506</coordinates>
</LineString>
</Placemark>
<Placemark>
<name>浸水範囲</name>
<styleUrl>#LineStyle1</styleUrl>
<LineString>
<coordinates>139.99746256269657,36.02314070155299 139.99784480890585,36.02291987774062 139.99799497705953,36.02247822824536 139.99809053861188,36.02188199750635 139.99803593201054,36.02132992798467 139.99787211220652,36.02105389177339 139.99780385395488,36.021020767363055 139.9977219440529,36.02109805763217 139.99761273085022,36.02145138361131 139.9974898659972,36.02286467168503 139.99746256269657,36.02314070155299</coordinates>
</LineString>
</Placemark>
<Placemark>
<name>浸水範囲</name>
<styleUrl>#LineStyle1</styleUrl>
<LineString>
<coordinates>139.98967830406662,36.03701156348998 139.98971817757376,36.037297885461854 139.9905398517219,36.03737114866396 139.9910251146566,36.037625779551604 139.990748834942,36.037921734143175 139.98995662258608,36.0380946531759 139.99136317881778,36.03894538265328 139.9930386075597,36.040193554058924 139.99316551519755,36.04107335429118 139.9932232609865,36.04400910764903 139.9930709022588,36.045105662670494 139.99293903165923,36.046054760699626 139.99279563962727,36.04708678068999 139.99315428478616,36.04809268964779 139.99284734795387,36.04916051316025 139.99279133205255,36.050266691984305 139.9922015812201,36.051520176895714 139.99144487278414,36.05270415259948 139.99054064229253,36.05348049952531 139.98991814562086,36.053912659957675 139.98915203440504,36.05438814216589 139.98849331766652,36.05446300119636 139.98755888097477,36.054641120213454 139.98661224197645,36.054900447447395 139.98526597569122,36.05555046545651 139.98439254662514,36.05604590941884 139.98409407667,36.056664399265074 139.98353129158733,36.057529487890434 139.98332761207857,36.05828735856619 139.9829695963731,36.05912126811693 139.9830929726563,36.06002951835485 139.98405879648195,36.06077648672932 139.98584860946895,36.06080196906372 139.98729373607537,36.060920741835666 139.98843585813546,36.061098227349376 139.98938843785515,36.061254714898865 139.989185601403,36.062980767661294 139.98896224127034,36.06431419177716 139.98754753012813,36.064006422417975 139.98728719169023,36.06506666057655 139.9860793633837,36.064967726023774 139.9863601008611,36.06368968136133 139.98506221078424,36.063946809786906 139.98478001592088,36.06462275859394 139.98469735012452,36.06509530190088 139.98443996635666,36.06591153213918 139.98426034203382,36.06642237993724 139.98409060388414,36.06706350775214 139.98395665507834,36.06771083332807 139.98375897099328,36.06827282426839 139.98389005355844,36.068970044203596 139.9838472032017,36.0694798548433 139.983682798438,36.07013811269728 139.9835975048157,36.07068298661587 139.98342176398543,36.071196040989584 139.98364668949398,36.07158415301272 139.9837763048379,36.07269426205772 139.98376577195913,36.07323630648435 139.98395738462597,36.07409019769809 139.98400823756808,36.074113792652014</coordinates>
</LineString>
</Placemark>
<Placemark>
<name>浸水範囲</name>
<styleUrl>#LineStyle1</styleUrl>
<LineString>
<coordinates>139.99728085162764,36.07947504734818 139.99758997536682,36.07959859520466 139.9964460206532,36.07781477991923 139.99680725741933,36.077190852603565 139.99681937919823,36.07677731616713 139.99618706846186,36.07662401443453 139.99507654136048,36.07631656896149 139.99594185565155,36.07478966362185 139.9960559339729,36.07420204528584 139.99634397901679,36.073607169476254 139.99587506420414,36.073409142297464 139.9955970970376,36.07315584262143 139.99485211661064,36.0730148552886 139.99465916347995,36.07352038929062 139.99398103697217,36.07329193972367 139.99438751753158,36.072249827104805 139.99489943874732,36.07158130267968 139.99547425506051,36.070234432423625 139.99620191467076,36.070392611731734 139.99691873241903,36.06963608921187 139.9980363853744,36.07002235055359 139.99937900681135,36.07039555413487 140.00005475206282,36.070536630412334 140.0004885844992,36.070715754907255 140.00067102671062,36.070827684884584 140.00115134058174,36.06978942834644 140.00201892424582,36.06998564303596 140.00258349726687,36.06889270292662 140.00262038677207,36.06818395849364 140.00272409666215,36.06743602662161 140.00264298540057,36.06659951768479 140.00287489478367,36.06579903287158 140.00294200323083,36.065143212220995 140.00333931495982,36.06407203547145 140.0021876830926,36.06385535668894 140.00220689067456,36.06357436380771 140.00254596503314,36.062448024404574 140.00183947770563,36.06219637095658 140.0019624172376,36.061581197846046 140.0010603908986,36.061477689613156 140.00116595548764,36.06073239321982 140.00153120372613,36.059869054627825 140.00190011854656,36.05929064889687 140.00215070357197,36.05892089806738 140.00267878287744,36.05850635903494 140.00347525713408,36.05816790054689 140.0044513856572,36.0576935733951 140.00443618662172,36.05826929819607 140.00620889459447,36.05853582491146 140.00645881035754,36.058129964584644 140.00714924904827,36.057550242483735 140.0081724375419,36.05827657893505 140.00911546559442,36.057840846681216 140.01021648425507,36.057595519406725 140.01172248861104,36.057170056128435 140.01086473265912,36.05677070376655 140.00986267183427,36.056312065246935 140.00906767916996,36.055909428535415 140.008531864136,36.05563805646755 140.00894997423646,36.054769979479744 140.00939101206714,36.05422750761917 140.0095818988564,36.05374855066028 140.0099075319139,36.05292922215036 140.0100237139607,36.052316779127786 140.0102103128041,36.05164936416211 140.01024063155145,36.05111750580685 140.01037384622404,36.0507417002479 140.01033787291658,36.050234165218725 140.01051218915035,36.049816806372064 140.01054337448716,36.049376818529225 140.01061214989664,36.049005412887816 140.01066814169843,36.0484950616278 140.0106373564875,36.048092396757184 140.01065842780187,36.04761056507454 140.01068806306378,36.04713779738853 140.0107276241558,36.04632659855201 140.01091452778812,36.04591788812078 140.01152798441757,36.04587799171822 140.01170720890303,36.045038157107236 140.01353213859636,36.044024740835184 140.01529285186524,36.04277396493025 140.01474372257437,36.04223690838191 140.0154528277699,36.04179634498486 140.01687131167745,36.041294931231576 140.0179171175156,36.04155552617324 140.019051006862,36.04210537695688 140.02052891110037,36.04231662920861 140.02188255489702,36.04224279096092 140.0229086582113,36.04219031714342 140.02368199497351,36.04153500711693 140.02380090149742,36.04096121852781 140.02433110997706,36.04031718684551 140.02464877206336,36.03972184806659 140.02486550816144,36.038903520257364 140.02519806101427,36.03818002941343 140.02534039340017,36.03743466569339 140.0252983446562,36.036772248213175 140.02569719887666,36.03635185989042 140.02589582141027,36.035954822104095 140.02645624764847,36.035539662781304 140.02662802941597,36.0351761688244 140.02694034822204,36.034765840738515 140.02719007020383,36.034301072149 140.02715343452238,36.03370495579211 140.02676174582788,36.03343647769729 140.02651691113206,36.03296347299032 140.02624144484332,36.03263227186494 140.02590721894137,36.03213783361528 140.02563665521254,36.03182465610213 140.02535622376703,36.03149043658173 140.02474777175613,36.031181283550694 140.02441467402093,36.03091691922192 140.0238689210527,36.03071011160293 140.02349361500563,36.03042475794408 140.02299739635896,36.03025523383719 140.02246164972593,36.030039836307914 140.0220014893358,36.029881008926154 140.02152958896278,36.029662809503435 140.02108914582956,36.02951710707176 140.02076495861672,36.02919621723612 140.02021358299837,36.02872215681977 140.01970175208015,36.02850847962446 140.01937387526027,36.02816120038718 140.0188591910858,36.027978296247 140.01839642643458,36.02786684946372 140.01786456348816,36.027749038144016 140.01734899566097,36.027569066073745 140.01678012137495,36.027508241629796 140.01628137987137,36.02752261217186 140.01574009191592,36.027449719169304 140.01528107169224,36.02757659709352 140.01455124073186,36.0275904451379 140.01399567124267,36.027752017769764 140.0136632167626,36.027657875486916 140.0123336720031,36.0274801844207 140.01165068206166,36.02710900606208 140.01089125299677,36.02637436021376 140.00983392270774,36.02568948924969 140.0092861365548,36.024947357377556 140.00896009398008,36.024370011269625 140.0081298956093,36.0233505021564 140.00765601763675,36.02276286231961 140.0072338346578,36.02258917314843 140.00658016894184,36.022034701786886 140.0062900336133,36.021308583992436 140.00533180947502,36.02107448178421 140.00416550614952,36.02082224446824 140.0028326468841,36.0209061477846 140.00201654112882,36.02106149463489 140.00090512417194,36.02118968521216 139.99970475569964,36.02118970676059 139.99910330399015,36.021743906882435 139.9990370850438,36.02205231267013 139.9989081725054,36.0224901362969 139.99865715497018,36.02275618890343 139.99841690933712,36.023036050894 139.99807131844022,36.02334955794918 139.9977959595152,36.023468123317166 139.9974827461839,36.023800591283475 139.99746604813015,36.024094000132244 139.99764671152914,36.024691475482854 139.99790748255117,36.025158099950616 139.99805529867015,36.02550157539751 139.99831177779583,36.025850396415464 139.99856596385965,36.026442660459594 139.99874639212783,36.02684075334717 139.99868957495858,36.02724184714369 139.99808394384218,36.02708827708039 139.99753435495927,36.026921044727935 139.99690432797846,36.026798849346214 139.99631957589415,36.026661325656605 139.9956829296442,36.026482972615135 139.99522504489948,36.02644070086289 139.99522122919484,36.02644769385169 139.99465144097996,36.0263236694187 139.9942694378848,36.02621653361914 139.99362232116027,36.02594139153774 139.99320849716423,36.02590415187711 139.99274822815073,36.025756027804874 139.9921329526764,36.025692855191785 139.9916500880911,36.02550629315576 139.99117072258386,36.02545059991678 139.99083365796903,36.0252637754984 139.98992470703766,36.025365891280444 139.98961095874697,36.02530937704082 139.98944574929408,36.02570304930149 139.98942465889195,36.026120183355836 139.98943644455844,36.02653836082936 139.98948074525805,36.02681453662096 139.98949065640164,36.02712233284002 139.98949783509863,36.02734527136966 139.98941043504942,36.02778886969898 139.98939043688634,36.02812624342704 139.9893716307949,36.02846178719028 139.9893454212406,36.02859733473704 139.98932011023516,36.02876577833488 139.9892642577365,36.02898996773458 139.9893631297863,36.02935263046793 139.9896851177611,36.0294418840981 139.99003609281226,36.02960546569766 139.99037140314528,36.02974425774574 139.99081984086644,36.02973517443912 139.99121921360816,36.030296934857624 139.99150785457135,36.03054742543472 139.99108018284105,36.03106354629121 139.99056176991348,36.031283576464496 139.99006496883348,36.03146730642661 139.9894314022063,36.03161519672085 139.98918855467218,36.032060944236555 139.988785613703,36.03236235665852 139.98866876549798,36.032785598403 139.98826235268396,36.03315902127902 139.98816166441526,36.03360636393474 139.9878754668139,36.03409696978509 139.9878970826678,36.03449219725343 139.9869425321172,36.03443903757011 139.98589647065313,36.034433873633205 139.98579144156957,36.03486235161632 139.9856738805546,36.03544405750018 139.9865240772775,36.035491361287995 139.98723352000974,36.0355681049276 139.99016031221097,36.03504108080646 139.9908699124607,36.0361631524207 139.99073543503695,36.03642885348046 139.99007806240647,36.036572053116004 139.9896572989432,36.03656471933135 139.98967830406662,36.03701156348998</coordinates>
</LineString>
</Placemark>
<Placemark>
<name>9月12日15:30の写真範囲の北限</name>
<styleUrl>#LineStyle2</styleUrl>
<LineString>
<coordinates>139.98400823756808,36.074113792652014 139.98488789197677,36.074521938265306 139.99728085162764,36.07947504734818</coordinates>
</LineString>
</Placemark>
</Document>
</kml>