<?xml version="1.0" encoding="UTF-8"?>
<kml xmlns="http://www.opengis.net/kml/2.2">
<Document>
<Style id="LineStyle1">
  <LineStyle>
  <color>ff0099ff</color>
  <width>5</width>
  </LineStyle>
</Style>
<Style id="LineStyle2">
  <LineStyle>
  <color>ffff0000</color>
  <width>5</width>
  </LineStyle>
</Style>
<Style id="LineStyle3">
  <LineStyle>
  <color>ffff00ff</color>
  <width>5</width>
  </LineStyle>
</Style>
<Style id="LineStyle4">
  <LineStyle>
  <color>ff00ff00</color>
  <width>5</width>
  </LineStyle>
</Style>
<Style id="LineStyle5">
  <LineStyle>
  <color>ff0000ff</color>
  <width>10</width>
  </LineStyle>
</Style>
<Placemark>
<description><![CDATA[ <table><tr><td> 越水箇所</td></tr></table> ]]></description>
<styleUrl>#LineStyle1</styleUrl>
<LineString>
<coordinates>139.954086078,36.136309887 139.95417104,36.135337142 139.954329505,36.134477222 139.954626871,36.133960571</coordinates>
</LineString>
</Placemark>
<Placemark>
<description><![CDATA[ <table><tr><td> 浸水範囲</td></tr></table> ]]></description>
<styleUrl>#LineStyle2</styleUrl>
<LineString>
<coordinates>139.960032909,36.151846401 139.959218764,36.150813804 139.95863465,36.150352801 139.957639157,36.150154708 139.956444011,36.14947385 139.95564916,36.148703704 139.955310726,36.147778756 139.954804689,36.147261335 139.953609048,36.146205508 139.954357859,36.143192647 139.954345469,36.142456167 139.953969319,36.141610997 139.953680377,36.14085748 139.953621737,36.139815859 139.953744979,36.13818262 139.954086078,36.136309887</coordinates>
</LineString>
</Placemark>
<Placemark>
<description><![CDATA[ <table><tr><td>浸水範囲</td></tr></table> ]]></description>
<styleUrl>#LineStyle2</styleUrl>
<LineString>
<coordinates>139.960032909,36.151846401 139.961636695,36.153806934 139.962468574,36.154070812 139.963122193,36.154358677 139.963670224,36.154362487</coordinates>
</LineString>
</Placemark>
<Placemark>
<description><![CDATA[ <table><tr><td> 浸水範囲</td></tr></table> ]]></description>
<styleUrl>#LineStyle2</styleUrl>
<LineString>
<coordinates>139.965564843,36.153593475 139.963670224,36.154362487</coordinates>
</LineString>
</Placemark>
<Placemark>
<description><![CDATA[ <table><tr><td>浸水範囲</td></tr></table> ]]></description>
<styleUrl>#LineStyle2</styleUrl>
<LineString>
<coordinates>139.965564843,36.153593475 139.964845371,36.150520386 139.964815661,36.149320881 139.964756241,36.148745112 139.96543957,36.148577179 139.966627969,36.148433236 139.967341008,36.148505208 139.968499697,36.149032997 139.969896065,36.149968616 139.970787364,36.150544376 139.971559823,36.150544376 139.971940339,36.150561291 139.976608141,36.14917502</coordinates>
</LineString>
</Placemark>
<Placemark>
<description><![CDATA[ <table><tr><td> 浸水範囲</td></tr></table> ]]></description>
<styleUrl>#LineStyle2</styleUrl>
<LineString>
<coordinates>139.994233075,36.088529431 139.993043358,36.09035143 139.992620533,36.091404702 139.99259275,36.091747439 139.993232357,36.092185749 139.993696913,36.092806507 139.993988133,36.093484179 139.993962569,36.094112027 139.993416557,36.094435975 139.992498803,36.094583653 139.99200937,36.095323048 139.991703153,36.095951473 139.991791744,36.096717696 139.992892798,36.097652792 139.99433056,36.098362979 139.994838043,36.097675216 139.996117554,36.09822422 139.997332251,36.096584751 139.998449466,36.097935477 139.997607605,36.099545338 139.997730541,36.099722403 139.998097999,36.09985109 139.998146917,36.100022594 139.997935272,36.100132733 139.997538876,36.10008132 139.997293754,36.10009384 139.996869179,36.10054433 139.996119813,36.100248095 139.995489952,36.101392733 139.996143682,36.101706678 139.996288225,36.102365008 139.996345029,36.102792687 139.99595541,36.103669591 139.995216838,36.103772024 139.994182131,36.105374312 139.993128152,36.105751776 139.993109644,36.106760031 139.994150662,36.106961335 139.994256155,36.108015346 139.995153613,36.108156903 139.99550632,36.108821737 139.995869595,36.110079741 139.995805199,36.111020512 139.996450665,36.111281611 139.996875662,36.112584451 139.997056618,36.113536476 139.996911763,36.114275091 139.996453613,36.11514101 139.995759146,36.115544457 139.995055874,36.115899237 139.994656628,36.11686612 139.994282516,36.117895331 139.994294022,36.118808536 139.994100167,36.11967799 139.993362236,36.120320352 139.991743674,36.120685349 139.991171435,36.121061504 139.990904009,36.121764954 139.990518386,36.123744361 139.990761486,36.124140707 139.991730159,36.125463262 139.992687766,36.128184183 139.993098645,36.130079392 139.993167817,36.131667501 139.993655382,36.133368664 139.99421275,36.134852824 139.99445114,36.136053957 139.994790808,36.13712332 139.995219225,36.138317886 139.996190664,36.13994988 139.996849787,36.141061778 139.985583981,36.144099814 139.986071826,36.145350803 139.983356306,36.145931654 139.983069655,36.145583979 139.982492244,36.145404254 139.980572141,36.146074751 139.980507842,36.147531469 139.978341119,36.148608013 139.976608141,36.14917502</coordinates>
</LineString>
</Placemark>
<Placemark>
<description><![CDATA[ <table><tr><td>浸水範囲（変化分）（不明瞭）</td></tr></table> ]]></description>
<styleUrl>#LineStyle4</styleUrl>
<LineString>
<coordinates>139.989281278,36.073630227 139.988710847,36.075224701 139.995579791,36.07585864 139.997172245,36.076089162 139.996744422,36.076915193 139.996364134,36.077760425 139.996815726,36.0785096 139.997766445,36.079854256 139.998479484,36.081333351 139.998431948,36.082485873 139.998336876,36.083350253 139.997576301,36.084195416 139.997029638,36.085194233 139.99653051,36.085847299 139.996031383,36.086826888 139.995270808,36.087729635 139.994233075,36.088529431</coordinates>
</LineString>
</Placemark>
<Placemark>
<description><![CDATA[ <table><tr><td> 浸水範囲（変化分）</td></tr></table> ]]></description>
<styleUrl>#LineStyle4</styleUrl>
<LineString>
<coordinates>139.981490031,36.077203892 139.981984511,36.076434943 139.983529429,36.076819143 139.984432612,36.075474435 139.985478403,36.075647328 139.985597243,36.074936546 139.987308537,36.075071018 139.987878968,36.073322855 139.989281278,36.073630227</coordinates>
</LineString>
</Placemark>
<Placemark>
<description><![CDATA[ <table><tr><td> 浸水範囲</td></tr></table> ]]></description>
<styleUrl>#LineStyle2</styleUrl>
<LineString>
<coordinates>139.965521239,36.088198889 139.965940995,36.087726128 139.966749571,36.08720713 139.967527883,36.086947923 139.96813721,36.086556708 139.96855697,36.086156633 139.968850526,36.08578991 139.969274743,36.085766161 139.970159859,36.085969752 139.972338019,36.086252122 139.973068186,36.086284045 139.974011114,36.085988443 139.974596069,36.085730748 139.974848085,36.085501059 139.974942201,36.085140344 139.974472952,36.084541308 139.973594883,36.083579949 139.972979623,36.08294525 139.972933332,36.082493833 139.97338481,36.081994421 139.973903624,36.081865072 139.97596807,36.082232393 139.976824167,36.08238826 139.977716825,36.082226478 139.978257721,36.081883823 139.978436775,36.081220885 139.978421866,36.080633377 139.977962967,36.079649701 139.977889333,36.079211742 139.978182896,36.078934746 139.979401375,36.07895634 139.980172101,36.078684275 139.980807523,36.078320839 139.981246077,36.07779959 139.981490031,36.077203892</coordinates>
</LineString>
</Placemark>
<Placemark>
<description><![CDATA[ <table><tr><td>浸水範囲（変化分）（不明瞭）</td></tr></table> ]]></description>
<styleUrl>#LineStyle4</styleUrl>
<LineString>
<coordinates>139.962435353,36.092382461 139.962167964,36.09115806 139.962554193,36.090149715 139.963415782,36.089597521 139.964574471,36.088901271 139.965521239,36.088198889</coordinates>
</LineString>
</Placemark>
<Placemark>
<description><![CDATA[ <table><tr><td>浸水範囲（変化分）</td></tr></table> ]]></description>
<styleUrl>#LineStyle4</styleUrl>
<LineString>
<coordinates>139.966596711,36.099418196 139.9649607,36.097087825 139.964009981,36.095719458 139.964752731,36.095503397 139.964188241,36.093654858 139.962999843,36.093678865 139.962435353,36.092382461</coordinates>
</LineString>
</Placemark>
<Placemark>
<description><![CDATA[ <table><tr><td> 破堤箇所</td></tr></table> ]]></description>
<styleUrl>#LineStyle5</styleUrl>
<LineString>
<coordinates>139.967109846,36.100695546 139.966853278,36.100056874 139.966596711,36.099418196</coordinates>
</LineString>
</Placemark>
<Placemark>
<description><![CDATA[ <table><tr><td> 浸水範囲</td></tr></table> ]]></description>
<styleUrl>#LineStyle2</styleUrl>
<LineString>
<coordinates>139.971645193,36.111113258 139.97116747,36.11074405 139.971047525,36.110687524 139.969848068,36.110647148 139.969698136,36.110526021 139.969588185,36.110307991 139.969718127,36.109032102 139.969658154,36.107602759 139.969448249,36.106367204 139.969138389,36.105767589 139.96884852,36.10518614 139.968228801,36.104515853 139.967968919,36.103980831 139.967689045,36.103052105 139.967549109,36.102194033 139.967209851,36.100960531 139.967109846,36.100695546</coordinates>
</LineString>
</Placemark>
<Placemark>
<description><![CDATA[ <table><tr><td> 浸水範囲（不明瞭）</td></tr></table> ]]></description>
<styleUrl>#LineStyle2</styleUrl>
<LineString>
<coordinates>139.964680408,36.125148774 139.966087512,36.125336967 139.967022939,36.125354599 139.968085898,36.125119986 139.968546823,36.124831489 139.969007602,36.124454521 139.969568162,36.123795555 139.970258679,36.122282823 139.971137041,36.120882058 139.97196711,36.119552865 139.972587833,36.11836777 139.973136682,36.117387602 139.973223619,36.116448143 139.973367413,36.114370804 139.973045247,36.113188907 139.972560294,36.112206341 139.971645193,36.111113258</coordinates>
</LineString>
</Placemark>
<Placemark>
<description><![CDATA[ <table><tr><td> 浸水範囲</td></tr></table> ]]></description>
<styleUrl>#LineStyle2</styleUrl>
<LineString>
<coordinates>139.954634957,36.133946547 139.954894839,36.133429889 139.955324644,36.132872864 139.956304201,36.132009063 139.957103839,36.131387443 139.958173354,36.130160336 139.959422789,36.12893119 139.960552277,36.127962392 139.961571815,36.127445695 139.961931652,36.127013766 139.962231517,36.126271004 139.962541376,36.12578659 139.963470955,36.125100332 139.963810802,36.124979227 139.964680408,36.125148774</coordinates>
</LineString>
</Placemark>
</Document>
</kml>