<?xml version="1.0" encoding="UTF-8"?>
<kml xmlns="http://www.opengis.net/kml/2.2">
<Document>
 <name>DENKOKU-20150916</name>
<Style id="L000001">
 <LineStyle>
  <color>FFFF0000</color>
  <width>5</width>
 </LineStyle>
</Style>
<Placemark>
 <name>浸水範囲</name>
 <styleUrl>#L000001</styleUrl>
 <LineString>
  <coordinates>139.987482302,36.075052219 139.988636623,36.075080956 139.989061867,36.073584167 139.987981591,36.073328636 139.987482302,36.075052219</coordinates>
 </LineString>
</Placemark>
<Placemark>
 <name>浸水範囲</name>
 <styleUrl>#L000001</styleUrl>
 <LineString>
  <coordinates>139.992388214,36.07057221 139.992813729,36.069256768 139.992012887,36.069076469 139.991568259,36.070150117 139.990450881,36.069939997 139.989877411,36.071769483 139.991013521,36.072024924 139.990809945,36.072629732 139.99155491,36.072779886 139.992388214,36.07057221</coordinates>
 </LineString>
</Placemark>
<Placemark>
 <name>浸水範囲</name>
 <styleUrl>#L000001</styleUrl>
 <LineString>
  <coordinates>140.007666338,36.042826928 140.00667606,36.042840104 140.006681841,36.044074074 140.006678386,36.044131143 140.007650919,36.044117392 140.007666338,36.042826928</coordinates>
 </LineString>
</Placemark>
<Placemark>
 <name>浸水範囲</name>
 <styleUrl>#L000001</styleUrl>
 <LineString>
  <coordinates>139.992759421,36.063789156 139.992763002,36.063780379 139.992762826,36.063780316 139.992759421,36.063789156</coordinates>
 </LineString>
</Placemark>
<Placemark>
 <name>浸水範囲</name>
 <styleUrl>#L000001</styleUrl>
 <LineString>
  <coordinates>139.994135501,36.065102676 139.99439649,36.064367915 139.992763002,36.063780379 139.992759421,36.063789156 139.992610084,36.064176841 139.992602049,36.064174903 139.992159647,36.065259289 139.993439161,36.065553121 139.993698696,36.065023801 139.994135501,36.065102676</coordinates>
 </LineString>
</Placemark>
<Placemark>
 <name>浸水範囲</name>
 <styleUrl>#L000001</styleUrl>
 <LineString>
  <coordinates>139.991268449,36.067550456 139.992504008,36.067823397 139.992605543,36.067564331 139.993294342,36.067578527 139.993850131,36.066262907 139.993086609,36.066112792 139.992845498,36.066551405 139.991765479,36.066274612 139.991434419,36.067176019 139.991268449,36.067550456</coordinates>
 </LineString>
</Placemark>
<Placemark>
 <name>浸水範囲</name>
 <styleUrl>#L000001</styleUrl>
 <LineString>
  <coordinates>139.993833092,36.061278744 139.993463658,36.062129877 139.992896402,36.063433542 139.994643971,36.063723943 139.995035044,36.062765012 139.995929109,36.062962122 139.995793644,36.063367291 139.995739459,36.063454894 139.995712366,36.063487746 139.995522716,36.063487746 139.995495623,36.063509647 139.995355395,36.063842155 139.995539198,36.063872696 139.995373404,36.064719278 139.99536727,36.064717072 139.995216476,36.065297863 139.996938883,36.06560885 139.997203356,36.065417337 139.997363045,36.06506094 139.996132305,36.064867492 139.996267769,36.064330927 139.997589362,36.064555837 139.997738156,36.064223749 139.996917998,36.06411192 139.997368407,36.062895691 139.996113632,36.06260238 139.996316892,36.061876654 139.995720964,36.061741441 139.995479044,36.061771996 139.995449065,36.061763012 139.995441437,36.061779455 139.995184055,36.062447445 139.994384815,36.062283186 139.994697782,36.061537874 139.993833092,36.061278744</coordinates>
 </LineString>
</Placemark>
<Placemark>
 <name>浸水範囲</name>
 <styleUrl>#L000001</styleUrl>
 <LineString>
  <coordinates>139.997275864,36.053438357 139.997021608,36.054047484 139.99781974,36.054270895 139.998085519,36.053655647 139.997275864,36.053438357</coordinates>
 </LineString>
</Placemark>
<Placemark>
 <name>浸水範囲</name>
 <styleUrl>#L000001</styleUrl>
 <LineString>
  <coordinates>139.997633107,36.054714536 139.997412763,36.055232694 139.99810418,36.055421936 139.998335546,36.054890567 139.997633107,36.054714536</coordinates>
 </LineString>
</Placemark>
<Placemark>
 <name>浸水範囲</name>
 <styleUrl>#L000001</styleUrl>
 <LineString>
  <coordinates>139.997298763,36.055462387 139.996503983,36.055261596 139.99624745,36.055882281 139.997029544,36.056104585 139.997298763,36.055462387</coordinates>
 </LineString>
</Placemark>
<Placemark>
 <name>浸水範囲</name>
 <styleUrl>#L000001</styleUrl>
 <LineString>
  <coordinates>139.99576016,36.056910376 139.996023934,36.056282011 139.994865783,36.055969525 139.994611907,36.056565094 139.99576016,36.056910376</coordinates>
 </LineString>
</Placemark>
<Placemark>
 <name>浸水範囲</name>
 <styleUrl>#L000001</styleUrl>
 <LineString>
  <coordinates>139.996245994,36.057925739 139.995452002,36.05770708 139.99496118,36.058844425 139.995760119,36.059062573 139.996245994,36.057925739</coordinates>
 </LineString>
</Placemark>
<Placemark>
 <name>浸水範囲</name>
 <styleUrl>#L000001</styleUrl>
 <LineString>
  <coordinates>140.000431767,36.029055405 140.000548792,36.028978792 140.000441598,36.028607264 140.000410901,36.027999044 140.000362995,36.02799365 139.999326494,36.028048333 139.999505093,36.028924675 140.000431767,36.029055405</coordinates>
 </LineString>
</Placemark>
<Placemark>
 <name>浸水範囲</name>
 <styleUrl>#L000001</styleUrl>
 <LineString>
  <coordinates>140.006777784,36.037446576 140.0067671,36.037852643 140.005981407,36.037841689 140.005967861,36.038433205 140.006726461,36.038444159 140.006740007,36.0389809 140.005981407,36.038958993 140.005954314,36.039397146 140.005182168,36.039386193 140.00520926,36.038170309 140.003813978,36.038126494 140.003808713,36.038126555 140.003783499,36.038789207 140.003946056,36.039205454 140.004180708,36.039906043 140.007244612,36.039895543 140.007244612,36.040115137 140.00886142,36.040122876 140.00888373,36.038986377 140.007827108,36.038986377 140.007880136,36.037464139 140.006777784,36.037446576</coordinates>
 </LineString>
</Placemark>
<Placemark>
 <name>浸水範囲</name>
 <styleUrl>#L000001</styleUrl>
 <LineString>
  <coordinates>140.003187541,36.038133838 140.002165088,36.038145819 140.002151154,36.038164833 140.001853132,36.038559175 140.001433193,36.0389097 140.000864243,36.039435485 140.00045785,36.039851728 140.000211835,36.040333346 140.001893771,36.040251539 140.001541564,36.040941619 139.99992969,36.041001316 139.999821167,36.041396192 139.99969925,36.041856239 139.999563785,36.042973486 139.99944009,36.04358712 139.999619636,36.04358471 139.999454106,36.045104674 140.00024496,36.045183842 140.001731214,36.045268172 140.001514471,36.046374418 140.00151187,36.046377849 140.001514467,36.04637808 140.001444922,36.047371799 140.002741065,36.047602998 140.0030352,36.046066795 140.003613053,36.046130552 140.004142845,36.046178962 140.004265863,36.045321662 140.004255726,36.043740481 140.004004895,36.04314362 140.003765479,36.043109431 140.003429241,36.045388155 140.003008772,36.045352108 140.00343641,36.042759324 140.003984059,36.042784535 140.00389187,36.042382004 140.00389187,36.04126475 140.003810591,36.040585626 140.003539663,36.039665514 140.003214548,36.038723484 140.003187541,36.038133838</coordinates>
 </LineString>
</Placemark>
<Placemark>
 <name>浸水範囲</name>
 <styleUrl>#L000001</styleUrl>
 <LineString>
  <coordinates>140.005686041,36.042143625 140.004507455,36.042120934 140.004487913,36.042579165 140.004487913,36.042865075 140.004755159,36.043229866 140.004943059,36.044060844 140.004944862,36.044892088 140.004960373,36.045164668 140.005596217,36.045152531 140.005686041,36.042143625</coordinates>
 </LineString>
</Placemark>
<Placemark>
 <name>浸水範囲</name>
 <styleUrl>#L000001</styleUrl>
 <LineString>
  <coordinates>140.004392701,36.04092519 140.005551308,36.040925189 140.005199101,36.040410368 140.005158461,36.040322738 140.005144915,36.040202248 140.00428629,36.04022127 140.004298263,36.040257016 140.004392701,36.04092519</coordinates>
 </LineString>
</Placemark>
<Placemark>
 <name>浸水範囲</name>
 <styleUrl>#L000001</styleUrl>
 <LineString>
  <coordinates>140.010988902,36.037257577 140.011037612,36.036105456 140.011078252,36.034243208 140.01575177,36.034341798 140.015744916,36.03500697 140.016785841,36.035005382 140.016765692,36.034340415 140.016773051,36.033501598 140.014549356,36.033452082 140.014584631,36.032605667 140.01572895,36.032596375 140.015764213,36.031749959 140.016880662,36.031763369 140.016906275,36.030773388 140.019111237,36.03080022 140.019038956,36.031714705 140.018015524,36.031693615 140.017881678,36.034352865 140.017956608,36.034353701 140.017847536,36.035457161 140.016693819,36.035443818 140.016659406,36.036652958 140.01786907,36.036711557 140.017886832,36.036348803 140.01892895,36.036377422 140.018893825,36.037269178 140.019917276,36.03726759 140.019988891,36.036073505 140.022166005,36.036138319 140.022138912,36.035722056 140.023344545,36.03573301 140.023385184,36.03451707 140.024281146,36.034496373 140.024283251,36.034381577 140.024403592,36.034229363 140.024425184,36.032448342 140.023621498,36.031787928 140.021196453,36.030186751 140.020582518,36.030099865 140.020851784,36.029642702 140.019686403,36.029017425 140.019082239,36.028632908 140.018960801,36.028561256 140.018670156,36.029168632 140.018643362,36.029644752 140.016940841,36.029632258 140.016847531,36.029562791 140.016833464,36.029647247 140.013233437,36.029830203 140.012240117,36.029856635 140.011980639,36.02986354 140.011326687,36.029724124 140.010483657,36.029301914 140.009579583,36.028555122 140.008871275,36.027981843 140.007846744,36.027439248 140.007064036,36.026866067 140.006704357,36.0263852 140.004985333,36.024723393 140.003700675,36.024761977 140.003344934,36.02542653 140.004242749,36.025706372 140.004409545,36.025403861 140.004911973,36.025440928 140.004934572,36.025829693 140.005510668,36.025807766 140.005510668,36.027615437 140.005037598,36.027601996 140.004516583,36.027580071 140.004063086,36.028668898 140.004073693,36.029273428 140.002612013,36.028769194 140.002287615,36.029336412 140.001680123,36.029211753 140.001832812,36.029434021 140.002022463,36.029806497 140.003268734,36.031011554 140.003458384,36.031384023 140.003566756,36.031887948 140.003675127,36.033772161 140.003876827,36.037115826 140.004400411,36.037141485 140.004413408,36.035995913 140.006278232,36.035995914 140.006407368,36.034238951 140.005699545,36.03421048 140.005438622,36.034086363 140.005384903,36.03330442 140.00616767,36.033360273 140.00631348,36.032174932 140.006374874,36.030759947 140.007103922,36.030809596 140.007065551,36.033572826 140.007034854,36.035088604 140.006973461,36.036664859 140.006828805,36.036664859 140.006836367,36.037227409 140.007176879,36.037233738 140.009493319,36.0372666 140.010988902,36.037257577</coordinates>
 </LineString>
</Placemark>
<Placemark>
 <name>浸水範囲</name>
 <styleUrl>#L000001</styleUrl>
 <LineString>
  <coordinates>139.996896598,36.040897807 139.998358153,36.040897805 139.998033039,36.042880383 139.997892176,36.043535295 139.998088706,36.043549627 139.998671049,36.043597436 139.999153499,36.043590964 139.999225125,36.043011822 139.999414775,36.04187267 139.999550239,36.041160691 139.999766982,36.040591103 140.000092096,36.039933881 140.000349478,36.039616222 140.000674593,36.039243793 140.000897614,36.039001463 139.999386863,36.039081183 139.998065744,36.039128346 139.998124089,36.040337354 139.996838565,36.040347145 139.996838565,36.040435583 139.996896598,36.040897807</coordinates>
 </LineString>
</Placemark>
<Placemark>
 <name>浸水範囲</name>
 <styleUrl>#L000001</styleUrl>
 <LineString>
  <coordinates>139.973085887,36.093540332 139.973336467,36.093168003 139.973970794,36.093373873 139.974239738,36.092870206 139.97349502,36.092638088 139.97372425,36.092192185 139.972779676,36.091848028 139.972118833,36.093010974 139.97194789,36.093125592 139.973085887,36.093540332</coordinates>
 </LineString>
</Placemark>
<Placemark>
 <name>浸水範囲</name>
 <styleUrl>#L000001</styleUrl>
 <LineString>
  <coordinates>139.978716336,36.089657148 139.979902627,36.090145624 139.980469327,36.088961064 139.979298147,36.08847258 139.978912792,36.0889977 139.978716336,36.089657148</coordinates>
 </LineString>
</Placemark>
<Placemark>
 <name>浸水範囲</name>
 <styleUrl>#L000001</styleUrl>
 <LineString>
  <coordinates>139.980145062,36.087026653 139.979828441,36.087718997 139.981032075,36.088063704 139.981314656,36.087372358 139.980145062,36.087026653</coordinates>
 </LineString>
</Placemark>
<Placemark>
 <name>浸水範囲</name>
 <styleUrl>#L000001</styleUrl>
 <LineString>
  <coordinates>139.98460172,36.086825527 139.985100765,36.088111311 139.986038096,36.086401071 139.986038096,36.086401071 139.986038096,36.086401071 139.988147525,36.083594664 139.989158163,36.08227148 139.990322547,36.077209935 139.990396016,36.076607603 139.989413737,36.07635111 139.988673249,36.07808548 139.987585186,36.077877846 139.987112294,36.07948257 139.985768905,36.083284949 139.984688847,36.083023714 139.984430558,36.08378909 139.98425719,36.084527347 139.984436225,36.084981361 139.98482158,36.08529889 139.98493492,36.085530929 139.984965144,36.085824031 139.98460172,36.086825527</coordinates>
 </LineString>
</Placemark>
<Placemark>
 <name>浸水範囲</name>
 <styleUrl>#L000001</styleUrl>
 <LineString>
  <coordinates>139.988043384,36.085143611 139.987072125,36.086733934 139.987072125,36.086733934 139.988750698,36.087274256 139.989211614,36.086492664 139.987964874,36.086053015 139.988335118,36.085308049 139.988043384,36.085143611</coordinates>
 </LineString>
</Placemark>
<Placemark>
 <name>浸水範囲</name>
 <styleUrl>#L000001</styleUrl>
 <LineString>
  <coordinates>139.991211536,36.080334442 139.990535513,36.080260572 139.990105446,36.082188253 139.989071828,36.0835143 139.990454575,36.083447129 139.991043943,36.081117483 139.991211536,36.080334442</coordinates>
 </LineString>
</Placemark>
<Placemark>
 <name>浸水範囲</name>
 <styleUrl>#L000001</styleUrl>
 <LineString>
  <coordinates>139.991931631,36.077059545 139.991069104,36.076950856 139.991017257,36.077068935 139.990894684,36.078430823 139.990881288,36.078573337 139.991566087,36.078677828 139.991648422,36.078293113 139.991931631,36.077059545</coordinates>
 </LineString>
</Placemark>
<Placemark>
 <name>浸水範囲</name>
 <styleUrl>#L000001</styleUrl>
 <LineString>
  <coordinates>139.981774788,36.095879238 139.981581915,36.097501592 139.982659799,36.09772041 139.982747993,36.096945439 139.983884716,36.096998047 139.984750965,36.097096135 139.984890833,36.096129157 139.984051152,36.096096326 139.983950377,36.096477556 139.982955107,36.096417699 139.982945108,36.095973065 139.981774788,36.095879238</coordinates>
 </LineString>
</Placemark>
<Placemark>
 <name>浸水範囲</name>
 <styleUrl>#L000001</styleUrl>
 <LineString>
  <coordinates>139.982569722,36.098680356 139.983883295,36.098680905 139.983906006,36.098389079 139.984493727,36.098433294 139.984629727,36.097761142 139.983942971,36.097758442 139.983927102,36.098086735 139.982634824,36.097997775 139.982569722,36.098680356</coordinates>
 </LineString>
</Placemark>
</Document>
</kml>
